{"type":"FeatureCollection","name":"EMSR884_AOI02_GRA_MONIT01_builtUpP_v1","crs":{"type":"name","properties":{"name":"urn:ogc:def:crs:OGC:1.3:CRS84"}},"features":[{"type":"Feature","properties":{"obj_type":"995-Unclassified","name":"Unknown","info":"997-Not Applicable","simplified":"Unclassified","damage_gra":"Possibly damaged","det_method":"Photo-interpretation","notation":"Building point","or_src_id":978,"dmg_src_id":3,"cd_value":"Not Applicable"},"geometry":{"type":"Point","coordinates":[-66.90314816,10.51341242]}},{"type":"Feature","properties":{"obj_type":"995-Unclassified","name":"Unknown","info":"997-Not Applicable","simplified":"Unclassified","damage_gra":"Destroyed","det_method":"Photo-interpretation","notation":"Building point","or_src_id":978,"dmg_src_id":3,"cd_value":"Not Applicable"},"geometry":{"type":"Point","coordinates":[-66.9033068,10.5134743]}},{"type":"Feature","properties":{"obj_type":"995-Unclassified","name":"Unknown","info":"997-Not Applicable","simplified":"Unclassified","damage_gra":"Possibly damaged","det_method":"Photo-interpretation","notation":"Building point","or_src_id":978,"dmg_src_id":3,"cd_value":"Not Applicable"},"geometry":{"type":"Point","coordinates":[-66.90342053,10.51354168]}},{"type":"Feature","properties":{"obj_type":"995-Unclassified","name":"Unknown","info":"997-Not Applicable","simplified":"Unclassified","damage_gra":"Possibly damaged","det_method":"Photo-interpretation","notation":"Building point","or_src_id":978,"dmg_src_id":3,"cd_value":"Not Applicable"},"geometry":{"type":"Point","coordinates":[-66.92484585,10.51430997]}},{"type":"Feature","properties":{"obj_type":"995-Unclassified","name":"Unknown","info":"997-Not Applicable","simplified":"Unclassified","damage_gra":"Possibly damaged","det_method":"Photo-interpretation","notation":"Building point","or_src_id":978,"dmg_src_id":3,"cd_value":"Not Applicable"},"geometry":{"type":"Point","coordinates":[-66.89870901,10.51465842]}},{"type":"Feature","properties":{"obj_type":"995-Unclassified","name":"Unknown","info":"997-Not Applicable","simplified":"Unclassified","damage_gra":"Possibly damaged","det_method":"Photo-interpretation","notation":"Building point","or_src_id":978,"dmg_src_id":3,"cd_value":"Not Applicable"},"geometry":{"type":"Point","coordinates":[-66.8989624,10.51471405]}},{"type":"Feature","properties":{"obj_type":"995-Unclassified","name":"Unknown","info":"997-Not Applicable","simplified":"Unclassified","damage_gra":"Possibly damaged","det_method":"Photo-interpretation","notation":"Building point","or_src_id":978,"dmg_src_id":3,"cd_value":"Not Applicable"},"geometry":{"type":"Point","coordinates":[-66.89890069,10.51495815]}},{"type":"Feature","properties":{"obj_type":"995-Unclassified","name":"Unknown","info":"997-Not Applicable","simplified":"Unclassified","damage_gra":"Possibly damaged","det_method":"Photo-interpretation","notation":"Building point","or_src_id":978,"dmg_src_id":3,"cd_value":"Not Applicable"},"geometry":{"type":"Point","coordinates":[-66.8989829,10.51503577]}},{"type":"Feature","properties":{"obj_type":"995-Unclassified","name":"Unknown","info":"997-Not Applicable","simplified":"Unclassified","damage_gra":"Possibly damaged","det_method":"Photo-interpretation","notation":"Building point","or_src_id":978,"dmg_src_id":3,"cd_value":"Not Applicable"},"geometry":{"type":"Point","coordinates":[-66.8988807,10.51510357]}},{"type":"Feature","properties":{"obj_type":"995-Unclassified","name":"Unknown","info":"997-Not Applicable","simplified":"Unclassified","damage_gra":"Destroyed","det_method":"Photo-interpretation","notation":"Building point","or_src_id":978,"dmg_src_id":3,"cd_value":"Not Applicable"},"geometry":{"type":"Point","coordinates":[-66.89876952,10.51512077]}},{"type":"Feature","properties":{"obj_type":"995-Unclassified","name":"Unknown","info":"997-Not Applicable","simplified":"Unclassified","damage_gra":"Possibly damaged","det_method":"Photo-interpretation","notation":"Building point","or_src_id":978,"dmg_src_id":3,"cd_value":"Not Applicable"},"geometry":{"type":"Point","coordinates":[-66.89845332,10.51456294]}},{"type":"Feature","properties":{"obj_type":"995-Unclassified","name":"Unknown","info":"997-Not Applicable","simplified":"Unclassified","damage_gra":"Possibly damaged","det_method":"Photo-interpretation","notation":"Building point","or_src_id":978,"dmg_src_id":3,"cd_value":"Not Applicable"},"geometry":{"type":"Point","coordinates":[-66.8985742,10.51460125]}},{"type":"Feature","properties":{"obj_type":"995-Unclassified","name":"Unknown","info":"997-Not Applicable","simplified":"Unclassified","damage_gra":"Possibly damaged","det_method":"Photo-interpretation","notation":"Building point","or_src_id":978,"dmg_src_id":3,"cd_value":"Not Applicable"},"geometry":{"type":"Point","coordinates":[-66.89850885,10.51463805]}},{"type":"Feature","properties":{"obj_type":"995-Unclassified","name":"Unknown","info":"997-Not Applicable","simplified":"Unclassified","damage_gra":"Possibly damaged","det_method":"Photo-interpretation","notation":"Building point","or_src_id":978,"dmg_src_id":3,"cd_value":"Not Applicable"},"geometry":{"type":"Point","coordinates":[-66.89845869,10.51466962]}},{"type":"Feature","properties":{"obj_type":"995-Unclassified","name":"Unknown","info":"997-Not Applicable","simplified":"Unclassified","damage_gra":"Possibly damaged","det_method":"Photo-interpretation","notation":"Building point","or_src_id":978,"dmg_src_id":3,"cd_value":"Not Applicable"},"geometry":{"type":"Point","coordinates":[-66.89864507,10.51470321]}},{"type":"Feature","properties":{"obj_type":"995-Unclassified","name":"Unknown","info":"997-Not Applicable","simplified":"Unclassified","damage_gra":"Possibly damaged","det_method":"Photo-interpretation","notation":"Building point","or_src_id":978,"dmg_src_id":3,"cd_value":"Not Applicable"},"geometry":{"type":"Point","coordinates":[-66.89824781,10.51471283]}},{"type":"Feature","properties":{"obj_type":"995-Unclassified","name":"Unknown","info":"997-Not Applicable","simplified":"Unclassified","damage_gra":"Possibly damaged","det_method":"Photo-interpretation","notation":"Building point","or_src_id":978,"dmg_src_id":3,"cd_value":"Not Applicable"},"geometry":{"type":"Point","coordinates":[-66.89819293,10.51489543]}},{"type":"Feature","properties":{"obj_type":"995-Unclassified","name":"Unknown","info":"997-Not Applicable","simplified":"Unclassified","damage_gra":"Destroyed","det_method":"Photo-interpretation","notation":"Building point","or_src_id":978,"dmg_src_id":3,"cd_value":"Not Applicable"},"geometry":{"type":"Point","coordinates":[-66.89858536,10.51502453]}},{"type":"Feature","properties":{"obj_type":"995-Unclassified","name":"Unknown","info":"997-Not Applicable","simplified":"Unclassified","damage_gra":"Possibly damaged","det_method":"Photo-interpretation","notation":"Building point","or_src_id":978,"dmg_src_id":3,"cd_value":"Not Applicable"},"geometry":{"type":"Point","coordinates":[-66.8986546,10.51546207]}},{"type":"Feature","properties":{"obj_type":"995-Unclassified","name":"Unknown","info":"997-Not Applicable","simplified":"Unclassified","damage_gra":"Possibly damaged","det_method":"Photo-interpretation","notation":"Building point","or_src_id":978,"dmg_src_id":3,"cd_value":"Not Applicable"},"geometry":{"type":"Point","coordinates":[-66.89842103,10.51547362]}}]}