{"type":"FeatureCollection","name":"EMSR884_AOI06_GRA_MONIT01_builtUpP_v1","crs":{"type":"name","properties":{"name":"urn:ogc:def:crs:OGC:1.3:CRS84"}},"features":[{"type":"Feature","properties":{"obj_type":"995-Unclassified","name":"Unknown","info":"997-Not Applicable","simplified":"Unclassified","damage_gra":"Damaged","det_method":"Photo-interpretation","notation":"Building point","or_src_id":978,"dmg_src_id":2,"cd_value":"New"},"geometry":{"type":"Point","coordinates":[-68.24952672,10.46752933]}},{"type":"Feature","properties":{"obj_type":"995-Unclassified","name":"Unknown","info":"997-Not Applicable","simplified":"Unclassified","damage_gra":"Damaged","det_method":"Photo-interpretation","notation":"Building point","or_src_id":978,"dmg_src_id":2,"cd_value":"New"},"geometry":{"type":"Point","coordinates":[-68.25010793,10.46761165]}},{"type":"Feature","properties":{"obj_type":"995-Unclassified","name":"Unknown","info":"997-Not Applicable","simplified":"Unclassified","damage_gra":"Damaged","det_method":"Photo-interpretation","notation":"Building point","or_src_id":978,"dmg_src_id":2,"cd_value":"New"},"geometry":{"type":"Point","coordinates":[-68.24976416,10.46765525]}},{"type":"Feature","properties":{"obj_type":"995-Unclassified","name":"Unknown","info":"997-Not Applicable","simplified":"Unclassified","damage_gra":"Damaged","det_method":"Photo-interpretation","notation":"Building point","or_src_id":978,"dmg_src_id":2,"cd_value":"New"},"geometry":{"type":"Point","coordinates":[-68.24948187,10.4677152]}},{"type":"Feature","properties":{"obj_type":"995-Unclassified","name":"Unknown","info":"997-Not Applicable","simplified":"Unclassified","damage_gra":"Damaged","det_method":"Photo-interpretation","notation":"Building point","or_src_id":978,"dmg_src_id":2,"cd_value":"New"},"geometry":{"type":"Point","coordinates":[-68.24979425,10.46776494]}},{"type":"Feature","properties":{"obj_type":"995-Unclassified","name":"Unknown","info":"997-Not Applicable","simplified":"Unclassified","damage_gra":"Damaged","det_method":"Photo-interpretation","notation":"Building point","or_src_id":978,"dmg_src_id":2,"cd_value":"New"},"geometry":{"type":"Point","coordinates":[-68.2494694,10.46792109]}},{"type":"Feature","properties":{"obj_type":"995-Unclassified","name":"Unknown","info":"997-Not Applicable","simplified":"Unclassified","damage_gra":"Damaged","det_method":"Photo-interpretation","notation":"Building point","or_src_id":978,"dmg_src_id":2,"cd_value":"New"},"geometry":{"type":"Point","coordinates":[-68.24995264,10.46824808]}},{"type":"Feature","properties":{"obj_type":"995-Unclassified","name":"Unknown","info":"997-Not Applicable","simplified":"Unclassified","damage_gra":"Damaged","det_method":"Photo-interpretation","notation":"Building point","or_src_id":978,"dmg_src_id":2,"cd_value":"New"},"geometry":{"type":"Point","coordinates":[-68.242342,10.46998272]}},{"type":"Feature","properties":{"obj_type":"995-Unclassified","name":"Unknown","info":"997-Not Applicable","simplified":"Unclassified","damage_gra":"Damaged","det_method":"Photo-interpretation","notation":"Building point","or_src_id":978,"dmg_src_id":2,"cd_value":"New"},"geometry":{"type":"Point","coordinates":[-68.2119996,10.47293615]}},{"type":"Feature","properties":{"obj_type":"995-Unclassified","name":"Unknown","info":"997-Not Applicable","simplified":"Unclassified","damage_gra":"Damaged","det_method":"Photo-interpretation","notation":"Building point","or_src_id":978,"dmg_src_id":2,"cd_value":"New"},"geometry":{"type":"Point","coordinates":[-68.21209985,10.47295348]}},{"type":"Feature","properties":{"obj_type":"995-Unclassified","name":"Unknown","info":"997-Not Applicable","simplified":"Unclassified","damage_gra":"Damaged","det_method":"Photo-interpretation","notation":"Building point","or_src_id":978,"dmg_src_id":2,"cd_value":"New"},"geometry":{"type":"Point","coordinates":[-68.2119223,10.47284375]}},{"type":"Feature","properties":{"obj_type":"995-Unclassified","name":"Unknown","info":"997-Not Applicable","simplified":"Unclassified","damage_gra":"Damaged","det_method":"Photo-interpretation","notation":"Building point","or_src_id":978,"dmg_src_id":2,"cd_value":"New"},"geometry":{"type":"Point","coordinates":[-68.21197469,10.47288978]}},{"type":"Feature","properties":{"obj_type":"995-Unclassified","name":"Unknown","info":"997-Not Applicable","simplified":"Unclassified","damage_gra":"Damaged","det_method":"Photo-interpretation","notation":"Building point","or_src_id":978,"dmg_src_id":2,"cd_value":"New"},"geometry":{"type":"Point","coordinates":[-68.2117018,10.4730193]}},{"type":"Feature","properties":{"obj_type":"995-Unclassified","name":"Unknown","info":"997-Not Applicable","simplified":"Unclassified","damage_gra":"Damaged","det_method":"Photo-interpretation","notation":"Building point","or_src_id":978,"dmg_src_id":2,"cd_value":"New"},"geometry":{"type":"Point","coordinates":[-68.21190159,10.47318422]}},{"type":"Feature","properties":{"obj_type":"995-Unclassified","name":"Unknown","info":"997-Not Applicable","simplified":"Unclassified","damage_gra":"Damaged","det_method":"Photo-interpretation","notation":"Building point","or_src_id":978,"dmg_src_id":2,"cd_value":"New"},"geometry":{"type":"Point","coordinates":[-68.21199627,10.47330539]}},{"type":"Feature","properties":{"obj_type":"995-Unclassified","name":"Unknown","info":"997-Not Applicable","simplified":"Unclassified","damage_gra":"Damaged","det_method":"Photo-interpretation","notation":"Building point","or_src_id":978,"dmg_src_id":2,"cd_value":"New"},"geometry":{"type":"Point","coordinates":[-68.21194835,10.47344295]}},{"type":"Feature","properties":{"obj_type":"995-Unclassified","name":"Unknown","info":"997-Not Applicable","simplified":"Unclassified","damage_gra":"Possibly damaged","det_method":"Photo-interpretation","notation":"Building point","or_src_id":978,"dmg_src_id":2,"cd_value":"New"},"geometry":{"type":"Point","coordinates":[-68.20947623,10.47363425]}},{"type":"Feature","properties":{"obj_type":"995-Unclassified","name":"Unknown","info":"997-Not Applicable","simplified":"Unclassified","damage_gra":"Damaged","det_method":"Photo-interpretation","notation":"Building point","or_src_id":978,"dmg_src_id":2,"cd_value":"New"},"geometry":{"type":"Point","coordinates":[-68.20811715,10.47445197]}},{"type":"Feature","properties":{"obj_type":"995-Unclassified","name":"Unknown","info":"997-Not Applicable","simplified":"Unclassified","damage_gra":"Damaged","det_method":"Photo-interpretation","notation":"Building point","or_src_id":978,"dmg_src_id":3,"cd_value":"New"},"geometry":{"type":"Point","coordinates":[-68.20184875,10.47450239]}},{"type":"Feature","properties":{"obj_type":"995-Unclassified","name":"Unknown","info":"997-Not Applicable","simplified":"Unclassified","damage_gra":"Damaged","det_method":"Photo-interpretation","notation":"Building point","or_src_id":978,"dmg_src_id":2,"cd_value":"New"},"geometry":{"type":"Point","coordinates":[-68.21145731,10.47452427]}},{"type":"Feature","properties":{"obj_type":"995-Unclassified","name":"Unknown","info":"997-Not Applicable","simplified":"Unclassified","damage_gra":"Damaged","det_method":"Photo-interpretation","notation":"Building point","or_src_id":978,"dmg_src_id":2,"cd_value":"New"},"geometry":{"type":"Point","coordinates":[-68.21200153,10.47300486]}},{"type":"Feature","properties":{"obj_type":"995-Unclassified","name":"Unknown","info":"997-Not Applicable","simplified":"Unclassified","damage_gra":"Damaged","det_method":"Photo-interpretation","notation":"Building point","or_src_id":978,"dmg_src_id":2,"cd_value":"New"},"geometry":{"type":"Point","coordinates":[-68.2120771,10.4730698]}},{"type":"Feature","properties":{"obj_type":"995-Unclassified","name":"Unknown","info":"997-Not Applicable","simplified":"Unclassified","damage_gra":"Damaged","det_method":"Photo-interpretation","notation":"Building point","or_src_id":978,"dmg_src_id":2,"cd_value":"New"},"geometry":{"type":"Point","coordinates":[-68.2120482,10.4732176]}},{"type":"Feature","properties":{"obj_type":"995-Unclassified","name":"Unknown","info":"997-Not Applicable","simplified":"Unclassified","damage_gra":"Damaged","det_method":"Photo-interpretation","notation":"Building point","or_src_id":978,"dmg_src_id":2,"cd_value":"New"},"geometry":{"type":"Point","coordinates":[-68.21207965,10.47330015]}},{"type":"Feature","properties":{"obj_type":"995-Unclassified","name":"Unknown","info":"997-Not Applicable","simplified":"Unclassified","damage_gra":"Damaged","det_method":"Photo-interpretation","notation":"Building point","or_src_id":978,"dmg_src_id":2,"cd_value":"New"},"geometry":{"type":"Point","coordinates":[-68.21204492,10.47339366]}},{"type":"Feature","properties":{"obj_type":"995-Unclassified","name":"Unknown","info":"997-Not Applicable","simplified":"Unclassified","damage_gra":"Possibly damaged","det_method":"Photo-interpretation","notation":"Building point","or_src_id":978,"dmg_src_id":2,"cd_value":"New"},"geometry":{"type":"Point","coordinates":[-68.23464376,10.47365898]}},{"type":"Feature","properties":{"obj_type":"995-Unclassified","name":"Unknown","info":"997-Not Applicable","simplified":"Unclassified","damage_gra":"Possibly damaged","det_method":"Photo-interpretation","notation":"Building point","or_src_id":978,"dmg_src_id":2,"cd_value":"New"},"geometry":{"type":"Point","coordinates":[-68.23464305,10.47376133]}},{"type":"Feature","properties":{"obj_type":"995-Unclassified","name":"Unknown","info":"997-Not Applicable","simplified":"Unclassified","damage_gra":"Possibly damaged","det_method":"Photo-interpretation","notation":"Building point","or_src_id":978,"dmg_src_id":2,"cd_value":"New"},"geometry":{"type":"Point","coordinates":[-68.23452642,10.47376631]}},{"type":"Feature","properties":{"obj_type":"995-Unclassified","name":"Unknown","info":"997-Not Applicable","simplified":"Unclassified","damage_gra":"Damaged","det_method":"Photo-interpretation","notation":"Building point","or_src_id":978,"dmg_src_id":2,"cd_value":"New"},"geometry":{"type":"Point","coordinates":[-68.22559604,10.47490133]}},{"type":"Feature","properties":{"obj_type":"995-Unclassified","name":"Unknown","info":"997-Not Applicable","simplified":"Unclassified","damage_gra":"Damaged","det_method":"Photo-interpretation","notation":"Building point","or_src_id":978,"dmg_src_id":2,"cd_value":"New"},"geometry":{"type":"Point","coordinates":[-68.22585073,10.47498386]}},{"type":"Feature","properties":{"obj_type":"995-Unclassified","name":"Unknown","info":"997-Not Applicable","simplified":"Unclassified","damage_gra":"Damaged","det_method":"Photo-interpretation","notation":"Building point","or_src_id":978,"dmg_src_id":2,"cd_value":"New"},"geometry":{"type":"Point","coordinates":[-68.22562633,10.47501801]}},{"type":"Feature","properties":{"obj_type":"995-Unclassified","name":"Unknown","info":"997-Not Applicable","simplified":"Unclassified","damage_gra":"Damaged","det_method":"Photo-interpretation","notation":"Building point","or_src_id":978,"dmg_src_id":2,"cd_value":"New"},"geometry":{"type":"Point","coordinates":[-68.22553311,10.47504898]}},{"type":"Feature","properties":{"obj_type":"995-Unclassified","name":"Unknown","info":"997-Not Applicable","simplified":"Unclassified","damage_gra":"Damaged","det_method":"Photo-interpretation","notation":"Building point","or_src_id":978,"dmg_src_id":2,"cd_value":"New"},"geometry":{"type":"Point","coordinates":[-68.22560305,10.4750743]}},{"type":"Feature","properties":{"obj_type":"995-Unclassified","name":"Unknown","info":"997-Not Applicable","simplified":"Unclassified","damage_gra":"Destroyed","det_method":"Photo-interpretation","notation":"Building point","or_src_id":978,"dmg_src_id":2,"cd_value":"New"},"geometry":{"type":"Point","coordinates":[-68.21248711,10.4755026]}},{"type":"Feature","properties":{"obj_type":"995-Unclassified","name":"Unknown","info":"997-Not Applicable","simplified":"Unclassified","damage_gra":"Damaged","det_method":"Photo-interpretation","notation":"Building point","or_src_id":978,"dmg_src_id":2,"cd_value":"New"},"geometry":{"type":"Point","coordinates":[-68.20841435,10.47452545]}},{"type":"Feature","properties":{"obj_type":"995-Unclassified","name":"Unknown","info":"997-Not Applicable","simplified":"Unclassified","damage_gra":"Damaged","det_method":"Photo-interpretation","notation":"Building point","or_src_id":978,"dmg_src_id":2,"cd_value":"New"},"geometry":{"type":"Point","coordinates":[-68.21132485,10.4745558]}},{"type":"Feature","properties":{"obj_type":"995-Unclassified","name":"Unknown","info":"997-Not Applicable","simplified":"Unclassified","damage_gra":"Damaged","det_method":"Photo-interpretation","notation":"Building point","or_src_id":978,"dmg_src_id":2,"cd_value":"New"},"geometry":{"type":"Point","coordinates":[-68.20855227,10.47461811]}},{"type":"Feature","properties":{"obj_type":"995-Unclassified","name":"Unknown","info":"997-Not Applicable","simplified":"Unclassified","damage_gra":"Damaged","det_method":"Photo-interpretation","notation":"Building point","or_src_id":978,"dmg_src_id":2,"cd_value":"New"},"geometry":{"type":"Point","coordinates":[-68.20843593,10.47472785]}},{"type":"Feature","properties":{"obj_type":"995-Unclassified","name":"Unknown","info":"997-Not Applicable","simplified":"Unclassified","damage_gra":"Possibly damaged","det_method":"Photo-interpretation","notation":"Building point","or_src_id":978,"dmg_src_id":3,"cd_value":"New"},"geometry":{"type":"Point","coordinates":[-68.20223262,10.47979892]}},{"type":"Feature","properties":{"obj_type":"995-Unclassified","name":"Unknown","info":"997-Not Applicable","simplified":"Unclassified","damage_gra":"Possibly damaged","det_method":"Photo-interpretation","notation":"Building point","or_src_id":978,"dmg_src_id":3,"cd_value":"New"},"geometry":{"type":"Point","coordinates":[-68.20218367,10.47985844]}},{"type":"Feature","properties":{"obj_type":"995-Unclassified","name":"Unknown","info":"997-Not Applicable","simplified":"Unclassified","damage_gra":"Possibly damaged","det_method":"Photo-interpretation","notation":"Building point","or_src_id":978,"dmg_src_id":3,"cd_value":"New"},"geometry":{"type":"Point","coordinates":[-68.20218358,10.47995108]}},{"type":"Feature","properties":{"obj_type":"995-Unclassified","name":"Unknown","info":"997-Not Applicable","simplified":"Unclassified","damage_gra":"Possibly damaged","det_method":"Photo-interpretation","notation":"Building point","or_src_id":978,"dmg_src_id":3,"cd_value":"New"},"geometry":{"type":"Point","coordinates":[-68.2053783,10.48647095]}},{"type":"Feature","properties":{"obj_type":"995-Unclassified","name":"Unknown","info":"997-Not Applicable","simplified":"Unclassified","damage_gra":"Possibly damaged","det_method":"Photo-interpretation","notation":"Building point","or_src_id":978,"dmg_src_id":2,"cd_value":"New"},"geometry":{"type":"Point","coordinates":[-68.21083677,10.48664809]}},{"type":"Feature","properties":{"obj_type":"995-Unclassified","name":"Unknown","info":"997-Not Applicable","simplified":"Unclassified","damage_gra":"Damaged","det_method":"Photo-interpretation","notation":"Building point","or_src_id":978,"dmg_src_id":3,"cd_value":"New"},"geometry":{"type":"Point","coordinates":[-68.20522865,10.48754058]}},{"type":"Feature","properties":{"obj_type":"995-Unclassified","name":"Unknown","info":"997-Not Applicable","simplified":"Unclassified","damage_gra":"Destroyed","det_method":"Photo-interpretation","notation":"Building point","or_src_id":978,"dmg_src_id":3,"cd_value":"New"},"geometry":{"type":"Point","coordinates":[-68.20635089,10.48846282]}},{"type":"Feature","properties":{"obj_type":"995-Unclassified","name":"Unknown","info":"997-Not Applicable","simplified":"Unclassified","damage_gra":"Destroyed","det_method":"Photo-interpretation","notation":"Building point","or_src_id":978,"dmg_src_id":3,"cd_value":"New"},"geometry":{"type":"Point","coordinates":[-68.20649475,10.48848858]}},{"type":"Feature","properties":{"obj_type":"995-Unclassified","name":"Unknown","info":"997-Not Applicable","simplified":"Unclassified","damage_gra":"Possibly damaged","det_method":"Photo-interpretation","notation":"Building point","or_src_id":978,"dmg_src_id":3,"cd_value":"New"},"geometry":{"type":"Point","coordinates":[-68.20282891,10.48861765]}},{"type":"Feature","properties":{"obj_type":"995-Unclassified","name":"Unknown","info":"997-Not Applicable","simplified":"Unclassified","damage_gra":"Possibly damaged","det_method":"Photo-interpretation","notation":"Building point","or_src_id":978,"dmg_src_id":3,"cd_value":"New"},"geometry":{"type":"Point","coordinates":[-68.2072251,10.4886298]}},{"type":"Feature","properties":{"obj_type":"995-Unclassified","name":"Unknown","info":"997-Not Applicable","simplified":"Unclassified","damage_gra":"Damaged","det_method":"Photo-interpretation","notation":"Building point","or_src_id":978,"dmg_src_id":3,"cd_value":"New"},"geometry":{"type":"Point","coordinates":[-68.20171195,10.4742268]}},{"type":"Feature","properties":{"obj_type":"995-Unclassified","name":"Unknown","info":"997-Not Applicable","simplified":"Unclassified","damage_gra":"Possibly damaged","det_method":"Photo-interpretation","notation":"Building point","or_src_id":978,"dmg_src_id":3,"cd_value":"New"},"geometry":{"type":"Point","coordinates":[-68.20128287,10.47886875]}},{"type":"Feature","properties":{"obj_type":"995-Unclassified","name":"Unknown","info":"997-Not Applicable","simplified":"Unclassified","damage_gra":"Possibly damaged","det_method":"Photo-interpretation","notation":"Building point","or_src_id":978,"dmg_src_id":3,"cd_value":"New"},"geometry":{"type":"Point","coordinates":[-68.1974658,10.4868716]}},{"type":"Feature","properties":{"obj_type":"995-Unclassified","name":"Unknown","info":"997-Not Applicable","simplified":"Unclassified","damage_gra":"Possibly damaged","det_method":"Photo-interpretation","notation":"Building point","or_src_id":978,"dmg_src_id":3,"cd_value":"New"},"geometry":{"type":"Point","coordinates":[-68.19721185,10.4868909]}},{"type":"Feature","properties":{"obj_type":"995-Unclassified","name":"Unknown","info":"997-Not Applicable","simplified":"Unclassified","damage_gra":"Possibly damaged","det_method":"Photo-interpretation","notation":"Building point","or_src_id":978,"dmg_src_id":3,"cd_value":"New"},"geometry":{"type":"Point","coordinates":[-68.19737497,10.48694299]}},{"type":"Feature","properties":{"obj_type":"995-Unclassified","name":"Unknown","info":"997-Not Applicable","simplified":"Unclassified","damage_gra":"Possibly damaged","det_method":"Photo-interpretation","notation":"Building point","or_src_id":978,"dmg_src_id":3,"cd_value":"New"},"geometry":{"type":"Point","coordinates":[-68.19723692,10.48697817]}},{"type":"Feature","properties":{"obj_type":"995-Unclassified","name":"Unknown","info":"997-Not Applicable","simplified":"Unclassified","damage_gra":"Possibly damaged","det_method":"Photo-interpretation","notation":"Building point","or_src_id":978,"dmg_src_id":3,"cd_value":"New"},"geometry":{"type":"Point","coordinates":[-68.19731422,10.48725754]}},{"type":"Feature","properties":{"obj_type":"995-Unclassified","name":"Unknown","info":"997-Not Applicable","simplified":"Unclassified","damage_gra":"Possibly damaged","det_method":"Photo-interpretation","notation":"Building point","or_src_id":978,"dmg_src_id":3,"cd_value":"New"},"geometry":{"type":"Point","coordinates":[-68.19724975,10.48728197]}},{"type":"Feature","properties":{"obj_type":"995-Unclassified","name":"Unknown","info":"997-Not Applicable","simplified":"Unclassified","damage_gra":"Possibly damaged","det_method":"Photo-interpretation","notation":"Building point","or_src_id":978,"dmg_src_id":3,"cd_value":"New"},"geometry":{"type":"Point","coordinates":[-68.19733223,10.48736006]}},{"type":"Feature","properties":{"obj_type":"995-Unclassified","name":"Unknown","info":"997-Not Applicable","simplified":"Unclassified","damage_gra":"Possibly damaged","det_method":"Photo-interpretation","notation":"Building point","or_src_id":978,"dmg_src_id":3,"cd_value":"New"},"geometry":{"type":"Point","coordinates":[-68.19506807,10.48798386]}},{"type":"Feature","properties":{"obj_type":"995-Unclassified","name":"Unknown","info":"997-Not Applicable","simplified":"Unclassified","damage_gra":"Possibly damaged","det_method":"Photo-interpretation","notation":"Building point","or_src_id":978,"dmg_src_id":3,"cd_value":"New"},"geometry":{"type":"Point","coordinates":[-68.18887075,10.48628698]}},{"type":"Feature","properties":{"obj_type":"995-Unclassified","name":"Unknown","info":"997-Not Applicable","simplified":"Unclassified","damage_gra":"Possibly damaged","det_method":"Photo-interpretation","notation":"Building point","or_src_id":978,"dmg_src_id":3,"cd_value":"New"},"geometry":{"type":"Point","coordinates":[-68.19028942,10.48735484]}},{"type":"Feature","properties":{"obj_type":"995-Unclassified","name":"Unknown","info":"997-Not Applicable","simplified":"Unclassified","damage_gra":"Possibly damaged","det_method":"Photo-interpretation","notation":"Building point","or_src_id":978,"dmg_src_id":3,"cd_value":"New"},"geometry":{"type":"Point","coordinates":[-68.19015322,10.48780556]}},{"type":"Feature","properties":{"obj_type":"995-Unclassified","name":"Unknown","info":"997-Not Applicable","simplified":"Unclassified","damage_gra":"Possibly damaged","det_method":"Photo-interpretation","notation":"Building point","or_src_id":978,"dmg_src_id":3,"cd_value":"New"},"geometry":{"type":"Point","coordinates":[-68.18249844,10.48866598]}},{"type":"Feature","properties":{"obj_type":"995-Unclassified","name":"Unknown","info":"997-Not Applicable","simplified":"Unclassified","damage_gra":"Possibly damaged","det_method":"Photo-interpretation","notation":"Building point","or_src_id":978,"dmg_src_id":3,"cd_value":"New"},"geometry":{"type":"Point","coordinates":[-68.1875968,10.48959377]}},{"type":"Feature","properties":{"obj_type":"995-Unclassified","name":"Unknown","info":"997-Not Applicable","simplified":"Unclassified","damage_gra":"Possibly damaged","det_method":"Photo-interpretation","notation":"Building point","or_src_id":978,"dmg_src_id":3,"cd_value":"New"},"geometry":{"type":"Point","coordinates":[-68.18732463,10.48964526]}},{"type":"Feature","properties":{"obj_type":"995-Unclassified","name":"Unknown","info":"997-Not Applicable","simplified":"Unclassified","damage_gra":"Possibly damaged","det_method":"Photo-interpretation","notation":"Building point","or_src_id":978,"dmg_src_id":3,"cd_value":"New"},"geometry":{"type":"Point","coordinates":[-68.18767308,10.48966567]}},{"type":"Feature","properties":{"obj_type":"995-Unclassified","name":"Unknown","info":"997-Not Applicable","simplified":"Unclassified","damage_gra":"Possibly damaged","det_method":"Photo-interpretation","notation":"Building point","or_src_id":978,"dmg_src_id":3,"cd_value":"New"},"geometry":{"type":"Point","coordinates":[-68.18760155,10.489706]}},{"type":"Feature","properties":{"obj_type":"995-Unclassified","name":"Unknown","info":"997-Not Applicable","simplified":"Unclassified","damage_gra":"Possibly damaged","det_method":"Photo-interpretation","notation":"Building point","or_src_id":978,"dmg_src_id":3,"cd_value":"New"},"geometry":{"type":"Point","coordinates":[-68.18730893,10.48974563]}},{"type":"Feature","properties":{"obj_type":"995-Unclassified","name":"Unknown","info":"997-Not Applicable","simplified":"Unclassified","damage_gra":"Possibly damaged","det_method":"Photo-interpretation","notation":"Building point","or_src_id":978,"dmg_src_id":3,"cd_value":"New"},"geometry":{"type":"Point","coordinates":[-68.1899946,10.48980837]}},{"type":"Feature","properties":{"obj_type":"995-Unclassified","name":"Unknown","info":"997-Not Applicable","simplified":"Unclassified","damage_gra":"Possibly damaged","det_method":"Photo-interpretation","notation":"Building point","or_src_id":978,"dmg_src_id":3,"cd_value":"New"},"geometry":{"type":"Point","coordinates":[-68.19674727,10.48959111]}},{"type":"Feature","properties":{"obj_type":"995-Unclassified","name":"Unknown","info":"997-Not Applicable","simplified":"Unclassified","damage_gra":"Possibly damaged","det_method":"Photo-interpretation","notation":"Building point","or_src_id":978,"dmg_src_id":3,"cd_value":"New"},"geometry":{"type":"Point","coordinates":[-68.19841281,10.48979342]}},{"type":"Feature","properties":{"obj_type":"995-Unclassified","name":"Unknown","info":"997-Not Applicable","simplified":"Unclassified","damage_gra":"Possibly damaged","det_method":"Photo-interpretation","notation":"Building point","or_src_id":978,"dmg_src_id":3,"cd_value":"New"},"geometry":{"type":"Point","coordinates":[-68.19560905,10.48985985]}},{"type":"Feature","properties":{"obj_type":"995-Unclassified","name":"Unknown","info":"997-Not Applicable","simplified":"Unclassified","damage_gra":"Possibly damaged","det_method":"Photo-interpretation","notation":"Building point","or_src_id":978,"dmg_src_id":3,"cd_value":"New"},"geometry":{"type":"Point","coordinates":[-68.19841591,10.48991871]}},{"type":"Feature","properties":{"obj_type":"995-Unclassified","name":"Unknown","info":"997-Not Applicable","simplified":"Unclassified","damage_gra":"Possibly damaged","det_method":"Photo-interpretation","notation":"Building point","or_src_id":978,"dmg_src_id":3,"cd_value":"New"},"geometry":{"type":"Point","coordinates":[-68.19824384,10.48999614]}},{"type":"Feature","properties":{"obj_type":"995-Unclassified","name":"Unknown","info":"997-Not Applicable","simplified":"Unclassified","damage_gra":"Possibly damaged","det_method":"Photo-interpretation","notation":"Building point","or_src_id":978,"dmg_src_id":3,"cd_value":"New"},"geometry":{"type":"Point","coordinates":[-68.19550075,10.49003517]}},{"type":"Feature","properties":{"obj_type":"995-Unclassified","name":"Unknown","info":"997-Not Applicable","simplified":"Unclassified","damage_gra":"Possibly damaged","det_method":"Photo-interpretation","notation":"Building point","or_src_id":978,"dmg_src_id":3,"cd_value":"New"},"geometry":{"type":"Point","coordinates":[-68.19541075,10.49011705]}},{"type":"Feature","properties":{"obj_type":"995-Unclassified","name":"Unknown","info":"997-Not Applicable","simplified":"Unclassified","damage_gra":"Possibly damaged","det_method":"Photo-interpretation","notation":"Building point","or_src_id":978,"dmg_src_id":3,"cd_value":"New"},"geometry":{"type":"Point","coordinates":[-68.19790199,10.49015097]}},{"type":"Feature","properties":{"obj_type":"995-Unclassified","name":"Unknown","info":"997-Not Applicable","simplified":"Unclassified","damage_gra":"Possibly damaged","det_method":"Photo-interpretation","notation":"Building point","or_src_id":978,"dmg_src_id":3,"cd_value":"New"},"geometry":{"type":"Point","coordinates":[-68.19539262,10.49020201]}},{"type":"Feature","properties":{"obj_type":"995-Unclassified","name":"Unknown","info":"997-Not Applicable","simplified":"Unclassified","damage_gra":"Possibly damaged","det_method":"Photo-interpretation","notation":"Building point","or_src_id":978,"dmg_src_id":3,"cd_value":"New"},"geometry":{"type":"Point","coordinates":[-68.1951491,10.4902421]}},{"type":"Feature","properties":{"obj_type":"995-Unclassified","name":"Unknown","info":"997-Not Applicable","simplified":"Unclassified","damage_gra":"Possibly damaged","det_method":"Photo-interpretation","notation":"Building point","or_src_id":978,"dmg_src_id":3,"cd_value":"New"},"geometry":{"type":"Point","coordinates":[-68.19681705,10.49030439]}},{"type":"Feature","properties":{"obj_type":"995-Unclassified","name":"Unknown","info":"997-Not Applicable","simplified":"Unclassified","damage_gra":"Damaged","det_method":"Photo-interpretation","notation":"Building point","or_src_id":978,"dmg_src_id":3,"cd_value":"New"},"geometry":{"type":"Point","coordinates":[-68.19579054,10.49281992]}},{"type":"Feature","properties":{"obj_type":"995-Unclassified","name":"Unknown","info":"997-Not Applicable","simplified":"Unclassified","damage_gra":"Damaged","det_method":"Photo-interpretation","notation":"Building point","or_src_id":978,"dmg_src_id":3,"cd_value":"New"},"geometry":{"type":"Point","coordinates":[-68.19621851,10.49474248]}},{"type":"Feature","properties":{"obj_type":"995-Unclassified","name":"Unknown","info":"997-Not Applicable","simplified":"Unclassified","damage_gra":"Possibly damaged","det_method":"Photo-interpretation","notation":"Building point","or_src_id":978,"dmg_src_id":3,"cd_value":"New"},"geometry":{"type":"Point","coordinates":[-68.19423487,10.50086933]}},{"type":"Feature","properties":{"obj_type":"995-Unclassified","name":"Unknown","info":"997-Not Applicable","simplified":"Unclassified","damage_gra":"Possibly damaged","det_method":"Photo-interpretation","notation":"Building point","or_src_id":978,"dmg_src_id":3,"cd_value":"New"},"geometry":{"type":"Point","coordinates":[-68.18987885,10.4898129]}},{"type":"Feature","properties":{"obj_type":"995-Unclassified","name":"Unknown","info":"997-Not Applicable","simplified":"Unclassified","damage_gra":"Possibly damaged","det_method":"Photo-interpretation","notation":"Building point","or_src_id":978,"dmg_src_id":3,"cd_value":"New"},"geometry":{"type":"Point","coordinates":[-68.1939078,10.4907791]}},{"type":"Feature","properties":{"obj_type":"995-Unclassified","name":"Unknown","info":"997-Not Applicable","simplified":"Unclassified","damage_gra":"Possibly damaged","det_method":"Photo-interpretation","notation":"Building point","or_src_id":978,"dmg_src_id":3,"cd_value":"New"},"geometry":{"type":"Point","coordinates":[-68.18892309,10.49109963]}},{"type":"Feature","properties":{"obj_type":"995-Unclassified","name":"Unknown","info":"997-Not Applicable","simplified":"Unclassified","damage_gra":"Possibly damaged","det_method":"Photo-interpretation","notation":"Building point","or_src_id":978,"dmg_src_id":3,"cd_value":"New"},"geometry":{"type":"Point","coordinates":[-68.18868459,10.49112328]}},{"type":"Feature","properties":{"obj_type":"995-Unclassified","name":"Unknown","info":"997-Not Applicable","simplified":"Unclassified","damage_gra":"Possibly damaged","det_method":"Photo-interpretation","notation":"Building point","or_src_id":978,"dmg_src_id":3,"cd_value":"New"},"geometry":{"type":"Point","coordinates":[-68.18247949,10.49557802]}},{"type":"Feature","properties":{"obj_type":"995-Unclassified","name":"Unknown","info":"997-Not Applicable","simplified":"Unclassified","damage_gra":"Possibly damaged","det_method":"Photo-interpretation","notation":"Building point","or_src_id":978,"dmg_src_id":3,"cd_value":"New"},"geometry":{"type":"Point","coordinates":[-68.1833702,10.49595695]}},{"type":"Feature","properties":{"obj_type":"995-Unclassified","name":"Unknown","info":"997-Not Applicable","simplified":"Unclassified","damage_gra":"Destroyed","det_method":"Photo-interpretation","notation":"Building point","or_src_id":978,"dmg_src_id":3,"cd_value":"New"},"geometry":{"type":"Point","coordinates":[-68.19370048,10.4972802]}},{"type":"Feature","properties":{"obj_type":"995-Unclassified","name":"Unknown","info":"997-Not Applicable","simplified":"Unclassified","damage_gra":"Damaged","det_method":"Photo-interpretation","notation":"Building point","or_src_id":978,"dmg_src_id":3,"cd_value":"New"},"geometry":{"type":"Point","coordinates":[-68.19162127,10.4974539]}},{"type":"Feature","properties":{"obj_type":"995-Unclassified","name":"Unknown","info":"997-Not Applicable","simplified":"Unclassified","damage_gra":"Possibly damaged","det_method":"Photo-interpretation","notation":"Building point","or_src_id":978,"dmg_src_id":3,"cd_value":"New"},"geometry":{"type":"Point","coordinates":[-68.1869715,10.49851485]}},{"type":"Feature","properties":{"obj_type":"995-Unclassified","name":"Unknown","info":"997-Not Applicable","simplified":"Unclassified","damage_gra":"Damaged","det_method":"Photo-interpretation","notation":"Building point","or_src_id":978,"dmg_src_id":3,"cd_value":"New"},"geometry":{"type":"Point","coordinates":[-68.18755806,10.51156895]}},{"type":"Feature","properties":{"obj_type":"995-Unclassified","name":"Unknown","info":"997-Not Applicable","simplified":"Unclassified","damage_gra":"Destroyed","det_method":"Photo-interpretation","notation":"Building point","or_src_id":978,"dmg_src_id":3,"cd_value":"New"},"geometry":{"type":"Point","coordinates":[-68.19126529,10.51489721]}},{"type":"Feature","properties":{"obj_type":"995-Unclassified","name":"Unknown","info":"997-Not Applicable","simplified":"Unclassified","damage_gra":"Destroyed","det_method":"Photo-interpretation","notation":"Building point","or_src_id":978,"dmg_src_id":3,"cd_value":"New"},"geometry":{"type":"Point","coordinates":[-68.18969061,10.51553841]}},{"type":"Feature","properties":{"obj_type":"995-Unclassified","name":"Unknown","info":"997-Not Applicable","simplified":"Unclassified","damage_gra":"Destroyed","det_method":"Photo-interpretation","notation":"Building point","or_src_id":978,"dmg_src_id":3,"cd_value":"New"},"geometry":{"type":"Point","coordinates":[-68.1895903,10.51569352]}},{"type":"Feature","properties":{"obj_type":"995-Unclassified","name":"Unknown","info":"997-Not Applicable","simplified":"Unclassified","damage_gra":"Destroyed","det_method":"Photo-interpretation","notation":"Building point","or_src_id":978,"dmg_src_id":3,"cd_value":"New"},"geometry":{"type":"Point","coordinates":[-68.1898809,10.51597797]}}]}