{"type":"FeatureCollection","name":"EMSR884_AOI08_GRA_MONIT01_builtUpP_v1","crs":{"type":"name","properties":{"name":"urn:ogc:def:crs:OGC:1.3:CRS84"}},"features":[{"type":"Feature","properties":{"obj_type":"11-Residential Buildings","name":"Unknown","info":"997-Not Applicable","simplified":"Residential","damage_gra":"Possibly damaged","det_method":"Photo-interpretation","notation":"Building point","or_src_id":978,"dmg_src_id":5,"cd_value":"Not Applicable"},"geometry":{"type":"Point","coordinates":[-68.84690108,10.24332479]}},{"type":"Feature","properties":{"obj_type":"11-Residential Buildings","name":"Unknown","info":"997-Not Applicable","simplified":"Residential","damage_gra":"Possibly damaged","det_method":"Photo-interpretation","notation":"Building point","or_src_id":978,"dmg_src_id":5,"cd_value":"Not Applicable"},"geometry":{"type":"Point","coordinates":[-68.84670165,10.24349367]}},{"type":"Feature","properties":{"obj_type":"11-Residential Buildings","name":"Unknown","info":"997-Not Applicable","simplified":"Residential","damage_gra":"Possibly damaged","det_method":"Photo-interpretation","notation":"Building point","or_src_id":978,"dmg_src_id":5,"cd_value":"Not Applicable"},"geometry":{"type":"Point","coordinates":[-68.84687422,10.24364916]}},{"type":"Feature","properties":{"obj_type":"11-Residential Buildings","name":"Unknown","info":"997-Not Applicable","simplified":"Residential","damage_gra":"Possibly damaged","det_method":"Photo-interpretation","notation":"Building point","or_src_id":978,"dmg_src_id":5,"cd_value":"Not Applicable"},"geometry":{"type":"Point","coordinates":[-68.84853175,10.2438016]}},{"type":"Feature","properties":{"obj_type":"11-Residential Buildings","name":"Unknown","info":"997-Not Applicable","simplified":"Residential","damage_gra":"Possibly damaged","det_method":"Photo-interpretation","notation":"Building point","or_src_id":978,"dmg_src_id":5,"cd_value":"Not Applicable"},"geometry":{"type":"Point","coordinates":[-68.84765772,10.24403859]}},{"type":"Feature","properties":{"obj_type":"11-Residential Buildings","name":"Unknown","info":"997-Not Applicable","simplified":"Residential","damage_gra":"Possibly damaged","det_method":"Photo-interpretation","notation":"Building point","or_src_id":978,"dmg_src_id":5,"cd_value":"Not Applicable"},"geometry":{"type":"Point","coordinates":[-68.84716412,10.24404445]}},{"type":"Feature","properties":{"obj_type":"11-Residential Buildings","name":"Unknown","info":"997-Not Applicable","simplified":"Residential","damage_gra":"Possibly damaged","det_method":"Photo-interpretation","notation":"Building point","or_src_id":978,"dmg_src_id":5,"cd_value":"Not Applicable"},"geometry":{"type":"Point","coordinates":[-68.84804802,10.24432473]}},{"type":"Feature","properties":{"obj_type":"11-Residential Buildings","name":"Unknown","info":"997-Not Applicable","simplified":"Residential","damage_gra":"Possibly damaged","det_method":"Photo-interpretation","notation":"Building point","or_src_id":978,"dmg_src_id":5,"cd_value":"Not Applicable"},"geometry":{"type":"Point","coordinates":[-68.847298,10.244985]}},{"type":"Feature","properties":{"obj_type":"11-Residential Buildings","name":"Unknown","info":"997-Not Applicable","simplified":"Residential","damage_gra":"Possibly damaged","det_method":"Photo-interpretation","notation":"Building point","or_src_id":978,"dmg_src_id":5,"cd_value":"Not Applicable"},"geometry":{"type":"Point","coordinates":[-68.85252553,10.24498859]}},{"type":"Feature","properties":{"obj_type":"11-Residential Buildings","name":"Unknown","info":"997-Not Applicable","simplified":"Residential","damage_gra":"Possibly damaged","det_method":"Photo-interpretation","notation":"Building point","or_src_id":978,"dmg_src_id":5,"cd_value":"Not Applicable"},"geometry":{"type":"Point","coordinates":[-68.84756473,10.245267]}},{"type":"Feature","properties":{"obj_type":"11-Residential Buildings","name":"Unknown","info":"997-Not Applicable","simplified":"Residential","damage_gra":"Possibly damaged","det_method":"Photo-interpretation","notation":"Building point","or_src_id":978,"dmg_src_id":5,"cd_value":"Not Applicable"},"geometry":{"type":"Point","coordinates":[-68.85072935,10.2454208]}},{"type":"Feature","properties":{"obj_type":"11-Residential Buildings","name":"Unknown","info":"997-Not Applicable","simplified":"Residential","damage_gra":"Possibly damaged","det_method":"Photo-interpretation","notation":"Building point","or_src_id":978,"dmg_src_id":5,"cd_value":"Not Applicable"},"geometry":{"type":"Point","coordinates":[-68.85318267,10.24549795]}},{"type":"Feature","properties":{"obj_type":"11-Residential Buildings","name":"Unknown","info":"997-Not Applicable","simplified":"Residential","damage_gra":"Possibly damaged","det_method":"Photo-interpretation","notation":"Building point","or_src_id":978,"dmg_src_id":5,"cd_value":"Not Applicable"},"geometry":{"type":"Point","coordinates":[-68.85080965,10.24550092]}},{"type":"Feature","properties":{"obj_type":"11-Residential Buildings","name":"Unknown","info":"997-Not Applicable","simplified":"Residential","damage_gra":"Possibly damaged","det_method":"Photo-interpretation","notation":"Building point","or_src_id":978,"dmg_src_id":5,"cd_value":"Not Applicable"},"geometry":{"type":"Point","coordinates":[-68.8508575,10.24556855]}},{"type":"Feature","properties":{"obj_type":"11-Residential Buildings","name":"Unknown","info":"997-Not Applicable","simplified":"Residential","damage_gra":"Possibly damaged","det_method":"Photo-interpretation","notation":"Building point","or_src_id":978,"dmg_src_id":5,"cd_value":"Not Applicable"},"geometry":{"type":"Point","coordinates":[-68.84795191,10.24563204]}},{"type":"Feature","properties":{"obj_type":"11-Residential Buildings","name":"Unknown","info":"997-Not Applicable","simplified":"Residential","damage_gra":"Possibly damaged","det_method":"Photo-interpretation","notation":"Building point","or_src_id":978,"dmg_src_id":5,"cd_value":"Not Applicable"},"geometry":{"type":"Point","coordinates":[-68.8479114,10.24572858]}},{"type":"Feature","properties":{"obj_type":"11-Residential Buildings","name":"Unknown","info":"997-Not Applicable","simplified":"Residential","damage_gra":"Possibly damaged","det_method":"Photo-interpretation","notation":"Building point","or_src_id":978,"dmg_src_id":5,"cd_value":"Not Applicable"},"geometry":{"type":"Point","coordinates":[-68.84965725,10.24580175]}},{"type":"Feature","properties":{"obj_type":"11-Residential Buildings","name":"Unknown","info":"997-Not Applicable","simplified":"Residential","damage_gra":"Possibly damaged","det_method":"Photo-interpretation","notation":"Building point","or_src_id":978,"dmg_src_id":5,"cd_value":"Not Applicable"},"geometry":{"type":"Point","coordinates":[-68.84972972,10.24581349]}},{"type":"Feature","properties":{"obj_type":"11-Residential Buildings","name":"Unknown","info":"997-Not Applicable","simplified":"Residential","damage_gra":"Possibly damaged","det_method":"Photo-interpretation","notation":"Building point","or_src_id":978,"dmg_src_id":5,"cd_value":"Not Applicable"},"geometry":{"type":"Point","coordinates":[-68.849695,10.2458621]}},{"type":"Feature","properties":{"obj_type":"11-Residential Buildings","name":"Unknown","info":"997-Not Applicable","simplified":"Residential","damage_gra":"Possibly damaged","det_method":"Photo-interpretation","notation":"Building point","or_src_id":978,"dmg_src_id":5,"cd_value":"Not Applicable"},"geometry":{"type":"Point","coordinates":[-68.84959835,10.24589695]}},{"type":"Feature","properties":{"obj_type":"11-Residential Buildings","name":"Unknown","info":"997-Not Applicable","simplified":"Residential","damage_gra":"Possibly damaged","det_method":"Photo-interpretation","notation":"Building point","or_src_id":978,"dmg_src_id":5,"cd_value":"Not Applicable"},"geometry":{"type":"Point","coordinates":[-68.8460105,10.24345875]}},{"type":"Feature","properties":{"obj_type":"11-Residential Buildings","name":"Unknown","info":"997-Not Applicable","simplified":"Residential","damage_gra":"Possibly damaged","det_method":"Photo-interpretation","notation":"Building point","or_src_id":978,"dmg_src_id":5,"cd_value":"Not Applicable"},"geometry":{"type":"Point","coordinates":[-68.84609836,10.24357643]}},{"type":"Feature","properties":{"obj_type":"11-Residential Buildings","name":"Unknown","info":"997-Not Applicable","simplified":"Residential","damage_gra":"Possibly damaged","det_method":"Photo-interpretation","notation":"Building point","or_src_id":978,"dmg_src_id":5,"cd_value":"Not Applicable"},"geometry":{"type":"Point","coordinates":[-68.84613165,10.2436382]}},{"type":"Feature","properties":{"obj_type":"11-Residential Buildings","name":"Unknown","info":"997-Not Applicable","simplified":"Residential","damage_gra":"Possibly damaged","det_method":"Photo-interpretation","notation":"Building point","or_src_id":978,"dmg_src_id":5,"cd_value":"Not Applicable"},"geometry":{"type":"Point","coordinates":[-68.84620174,10.24370837]}},{"type":"Feature","properties":{"obj_type":"11-Residential Buildings","name":"Unknown","info":"997-Not Applicable","simplified":"Residential","damage_gra":"Possibly damaged","det_method":"Photo-interpretation","notation":"Building point","or_src_id":978,"dmg_src_id":5,"cd_value":"Not Applicable"},"geometry":{"type":"Point","coordinates":[-68.8457744,10.246813]}},{"type":"Feature","properties":{"obj_type":"11-Residential Buildings","name":"Unknown","info":"997-Not Applicable","simplified":"Residential","damage_gra":"Possibly damaged","det_method":"Photo-interpretation","notation":"Building point","or_src_id":978,"dmg_src_id":5,"cd_value":"Not Applicable"},"geometry":{"type":"Point","coordinates":[-68.83658296,10.2481948]}},{"type":"Feature","properties":{"obj_type":"11-Residential Buildings","name":"Unknown","info":"997-Not Applicable","simplified":"Residential","damage_gra":"Possibly damaged","det_method":"Photo-interpretation","notation":"Building point","or_src_id":978,"dmg_src_id":5,"cd_value":"Not Applicable"},"geometry":{"type":"Point","coordinates":[-68.8356322,10.2489972]}},{"type":"Feature","properties":{"obj_type":"11-Residential Buildings","name":"Unknown","info":"997-Not Applicable","simplified":"Residential","damage_gra":"Possibly damaged","det_method":"Photo-interpretation","notation":"Building point","or_src_id":978,"dmg_src_id":5,"cd_value":"Not Applicable"},"geometry":{"type":"Point","coordinates":[-68.83550662,10.2490665]}},{"type":"Feature","properties":{"obj_type":"11-Residential Buildings","name":"Unknown","info":"997-Not Applicable","simplified":"Residential","damage_gra":"Possibly damaged","det_method":"Photo-interpretation","notation":"Building point","or_src_id":978,"dmg_src_id":5,"cd_value":"Not Applicable"},"geometry":{"type":"Point","coordinates":[-68.83670919,10.24973193]}},{"type":"Feature","properties":{"obj_type":"11-Residential Buildings","name":"Unknown","info":"997-Not Applicable","simplified":"Residential","damage_gra":"Possibly damaged","det_method":"Photo-interpretation","notation":"Building point","or_src_id":978,"dmg_src_id":5,"cd_value":"Not Applicable"},"geometry":{"type":"Point","coordinates":[-68.83678965,10.24977338]}},{"type":"Feature","properties":{"obj_type":"11-Residential Buildings","name":"Unknown","info":"997-Not Applicable","simplified":"Residential","damage_gra":"Possibly damaged","det_method":"Photo-interpretation","notation":"Building point","or_src_id":978,"dmg_src_id":5,"cd_value":"Not Applicable"},"geometry":{"type":"Point","coordinates":[-68.85359023,10.24630562]}},{"type":"Feature","properties":{"obj_type":"11-Residential Buildings","name":"Unknown","info":"997-Not Applicable","simplified":"Residential","damage_gra":"Possibly damaged","det_method":"Photo-interpretation","notation":"Building point","or_src_id":978,"dmg_src_id":5,"cd_value":"Not Applicable"},"geometry":{"type":"Point","coordinates":[-68.8489765,10.24630565]}},{"type":"Feature","properties":{"obj_type":"11-Residential Buildings","name":"Unknown","info":"997-Not Applicable","simplified":"Residential","damage_gra":"Possibly damaged","det_method":"Photo-interpretation","notation":"Building point","or_src_id":978,"dmg_src_id":5,"cd_value":"Not Applicable"},"geometry":{"type":"Point","coordinates":[-68.85192616,10.24681569]}},{"type":"Feature","properties":{"obj_type":"11-Residential Buildings","name":"Unknown","info":"997-Not Applicable","simplified":"Residential","damage_gra":"Possibly damaged","det_method":"Photo-interpretation","notation":"Building point","or_src_id":978,"dmg_src_id":5,"cd_value":"Not Applicable"},"geometry":{"type":"Point","coordinates":[-68.85251552,10.24715483]}},{"type":"Feature","properties":{"obj_type":"11-Residential Buildings","name":"Unknown","info":"997-Not Applicable","simplified":"Residential","damage_gra":"Possibly damaged","det_method":"Photo-interpretation","notation":"Building point","or_src_id":978,"dmg_src_id":5,"cd_value":"Not Applicable"},"geometry":{"type":"Point","coordinates":[-68.85239928,10.24719541]}},{"type":"Feature","properties":{"obj_type":"11-Residential Buildings","name":"Unknown","info":"997-Not Applicable","simplified":"Residential","damage_gra":"Possibly damaged","det_method":"Photo-interpretation","notation":"Building point","or_src_id":978,"dmg_src_id":5,"cd_value":"Not Applicable"},"geometry":{"type":"Point","coordinates":[-68.85240178,10.24729299]}},{"type":"Feature","properties":{"obj_type":"11-Residential Buildings","name":"Unknown","info":"997-Not Applicable","simplified":"Residential","damage_gra":"Possibly damaged","det_method":"Photo-interpretation","notation":"Building point","or_src_id":978,"dmg_src_id":5,"cd_value":"Not Applicable"},"geometry":{"type":"Point","coordinates":[-68.85231414,10.24732371]}},{"type":"Feature","properties":{"obj_type":"11-Residential Buildings","name":"Unknown","info":"997-Not Applicable","simplified":"Residential","damage_gra":"Possibly damaged","det_method":"Photo-interpretation","notation":"Building point","or_src_id":978,"dmg_src_id":5,"cd_value":"Not Applicable"},"geometry":{"type":"Point","coordinates":[-68.84660969,10.24742579]}},{"type":"Feature","properties":{"obj_type":"11-Residential Buildings","name":"Unknown","info":"997-Not Applicable","simplified":"Residential","damage_gra":"Possibly damaged","det_method":"Photo-interpretation","notation":"Building point","or_src_id":978,"dmg_src_id":5,"cd_value":"Not Applicable"},"geometry":{"type":"Point","coordinates":[-68.8462503,10.24744683]}},{"type":"Feature","properties":{"obj_type":"11-Residential Buildings","name":"Unknown","info":"997-Not Applicable","simplified":"Residential","damage_gra":"Possibly damaged","det_method":"Photo-interpretation","notation":"Building point","or_src_id":978,"dmg_src_id":5,"cd_value":"Not Applicable"},"geometry":{"type":"Point","coordinates":[-68.84669205,10.24751912]}},{"type":"Feature","properties":{"obj_type":"11-Residential Buildings","name":"Unknown","info":"997-Not Applicable","simplified":"Residential","damage_gra":"Possibly damaged","det_method":"Photo-interpretation","notation":"Building point","or_src_id":978,"dmg_src_id":5,"cd_value":"Not Applicable"},"geometry":{"type":"Point","coordinates":[-68.8548408,10.24759515]}},{"type":"Feature","properties":{"obj_type":"11-Residential Buildings","name":"Unknown","info":"997-Not Applicable","simplified":"Residential","damage_gra":"Possibly damaged","det_method":"Photo-interpretation","notation":"Building point","or_src_id":978,"dmg_src_id":5,"cd_value":"Not Applicable"},"geometry":{"type":"Point","coordinates":[-68.84664839,10.24808727]}},{"type":"Feature","properties":{"obj_type":"11-Residential Buildings","name":"Unknown","info":"997-Not Applicable","simplified":"Residential","damage_gra":"Possibly damaged","det_method":"Photo-interpretation","notation":"Building point","or_src_id":978,"dmg_src_id":5,"cd_value":"Not Applicable"},"geometry":{"type":"Point","coordinates":[-68.84717185,10.248162]}},{"type":"Feature","properties":{"obj_type":"11-Residential Buildings","name":"Unknown","info":"997-Not Applicable","simplified":"Residential","damage_gra":"Possibly damaged","det_method":"Photo-interpretation","notation":"Building point","or_src_id":978,"dmg_src_id":5,"cd_value":"Not Applicable"},"geometry":{"type":"Point","coordinates":[-68.84671435,10.2482137]}},{"type":"Feature","properties":{"obj_type":"11-Residential Buildings","name":"Unknown","info":"997-Not Applicable","simplified":"Residential","damage_gra":"Possibly damaged","det_method":"Photo-interpretation","notation":"Building point","or_src_id":978,"dmg_src_id":5,"cd_value":"Not Applicable"},"geometry":{"type":"Point","coordinates":[-68.8470063,10.2482498]}},{"type":"Feature","properties":{"obj_type":"11-Residential Buildings","name":"Unknown","info":"997-Not Applicable","simplified":"Residential","damage_gra":"Possibly damaged","det_method":"Photo-interpretation","notation":"Building point","or_src_id":978,"dmg_src_id":5,"cd_value":"Not Applicable"},"geometry":{"type":"Point","coordinates":[-68.84704001,10.24830028]}},{"type":"Feature","properties":{"obj_type":"11-Residential Buildings","name":"Unknown","info":"997-Not Applicable","simplified":"Residential","damage_gra":"Possibly damaged","det_method":"Photo-interpretation","notation":"Building point","or_src_id":978,"dmg_src_id":5,"cd_value":"Not Applicable"},"geometry":{"type":"Point","coordinates":[-68.8475259,10.2484651]}},{"type":"Feature","properties":{"obj_type":"11-Residential Buildings","name":"Unknown","info":"997-Not Applicable","simplified":"Residential","damage_gra":"Possibly damaged","det_method":"Photo-interpretation","notation":"Building point","or_src_id":978,"dmg_src_id":5,"cd_value":"Not Applicable"},"geometry":{"type":"Point","coordinates":[-68.83786664,10.25023298]}},{"type":"Feature","properties":{"obj_type":"11-Residential Buildings","name":"Unknown","info":"997-Not Applicable","simplified":"Residential","damage_gra":"Possibly damaged","det_method":"Photo-interpretation","notation":"Building point","or_src_id":978,"dmg_src_id":5,"cd_value":"Not Applicable"},"geometry":{"type":"Point","coordinates":[-68.84489394,10.25049486]}},{"type":"Feature","properties":{"obj_type":"11-Residential Buildings","name":"Unknown","info":"997-Not Applicable","simplified":"Residential","damage_gra":"Possibly damaged","det_method":"Photo-interpretation","notation":"Building point","or_src_id":978,"dmg_src_id":5,"cd_value":"Not Applicable"},"geometry":{"type":"Point","coordinates":[-68.83814135,10.25050465]}},{"type":"Feature","properties":{"obj_type":"11-Residential Buildings","name":"Unknown","info":"997-Not Applicable","simplified":"Residential","damage_gra":"Possibly damaged","det_method":"Photo-interpretation","notation":"Building point","or_src_id":978,"dmg_src_id":5,"cd_value":"Not Applicable"},"geometry":{"type":"Point","coordinates":[-68.84444725,10.25084545]}},{"type":"Feature","properties":{"obj_type":"11-Residential Buildings","name":"Unknown","info":"997-Not Applicable","simplified":"Residential","damage_gra":"Possibly damaged","det_method":"Photo-interpretation","notation":"Building point","or_src_id":978,"dmg_src_id":5,"cd_value":"Not Applicable"},"geometry":{"type":"Point","coordinates":[-68.84449568,10.25088102]}},{"type":"Feature","properties":{"obj_type":"11-Residential Buildings","name":"Unknown","info":"997-Not Applicable","simplified":"Residential","damage_gra":"Possibly damaged","det_method":"Photo-interpretation","notation":"Building point","or_src_id":978,"dmg_src_id":5,"cd_value":"Not Applicable"},"geometry":{"type":"Point","coordinates":[-68.83733966,10.25093986]}},{"type":"Feature","properties":{"obj_type":"11-Residential Buildings","name":"Unknown","info":"997-Not Applicable","simplified":"Residential","damage_gra":"Possibly damaged","det_method":"Photo-interpretation","notation":"Building point","or_src_id":978,"dmg_src_id":5,"cd_value":"Not Applicable"},"geometry":{"type":"Point","coordinates":[-68.83726225,10.2509401]}},{"type":"Feature","properties":{"obj_type":"11-Residential Buildings","name":"Unknown","info":"997-Not Applicable","simplified":"Residential","damage_gra":"Possibly damaged","det_method":"Photo-interpretation","notation":"Building point","or_src_id":978,"dmg_src_id":5,"cd_value":"Not Applicable"},"geometry":{"type":"Point","coordinates":[-68.83724255,10.25098175]}},{"type":"Feature","properties":{"obj_type":"11-Residential Buildings","name":"Unknown","info":"997-Not Applicable","simplified":"Residential","damage_gra":"Possibly damaged","det_method":"Photo-interpretation","notation":"Building point","or_src_id":978,"dmg_src_id":5,"cd_value":"Not Applicable"},"geometry":{"type":"Point","coordinates":[-68.82588365,10.2519109]}},{"type":"Feature","properties":{"obj_type":"11-Residential Buildings","name":"Unknown","info":"997-Not Applicable","simplified":"Residential","damage_gra":"Possibly damaged","det_method":"Photo-interpretation","notation":"Building point","or_src_id":978,"dmg_src_id":5,"cd_value":"Not Applicable"},"geometry":{"type":"Point","coordinates":[-68.84016501,10.25208132]}},{"type":"Feature","properties":{"obj_type":"11-Residential Buildings","name":"Unknown","info":"997-Not Applicable","simplified":"Residential","damage_gra":"Possibly damaged","det_method":"Photo-interpretation","notation":"Building point","or_src_id":978,"dmg_src_id":5,"cd_value":"Not Applicable"},"geometry":{"type":"Point","coordinates":[-68.82521102,10.25229109]}},{"type":"Feature","properties":{"obj_type":"11-Residential Buildings","name":"Unknown","info":"997-Not Applicable","simplified":"Residential","damage_gra":"Possibly damaged","det_method":"Photo-interpretation","notation":"Building point","or_src_id":978,"dmg_src_id":5,"cd_value":"Not Applicable"},"geometry":{"type":"Point","coordinates":[-68.8416886,10.25240663]}},{"type":"Feature","properties":{"obj_type":"11-Residential Buildings","name":"Unknown","info":"997-Not Applicable","simplified":"Residential","damage_gra":"Possibly damaged","det_method":"Photo-interpretation","notation":"Building point","or_src_id":978,"dmg_src_id":5,"cd_value":"Not Applicable"},"geometry":{"type":"Point","coordinates":[-68.84202905,10.2524289]}},{"type":"Feature","properties":{"obj_type":"11-Residential Buildings","name":"Unknown","info":"997-Not Applicable","simplified":"Residential","damage_gra":"Possibly damaged","det_method":"Photo-interpretation","notation":"Building point","or_src_id":978,"dmg_src_id":5,"cd_value":"Not Applicable"},"geometry":{"type":"Point","coordinates":[-68.8422939,10.25243222]}},{"type":"Feature","properties":{"obj_type":"11-Residential Buildings","name":"Unknown","info":"997-Not Applicable","simplified":"Residential","damage_gra":"Possibly damaged","det_method":"Photo-interpretation","notation":"Building point","or_src_id":978,"dmg_src_id":5,"cd_value":"Not Applicable"},"geometry":{"type":"Point","coordinates":[-68.82514687,10.25244383]}},{"type":"Feature","properties":{"obj_type":"11-Residential Buildings","name":"Unknown","info":"997-Not Applicable","simplified":"Residential","damage_gra":"Possibly damaged","det_method":"Photo-interpretation","notation":"Building point","or_src_id":978,"dmg_src_id":5,"cd_value":"Not Applicable"},"geometry":{"type":"Point","coordinates":[-68.84196429,10.25246566]}},{"type":"Feature","properties":{"obj_type":"11-Residential Buildings","name":"Unknown","info":"997-Not Applicable","simplified":"Residential","damage_gra":"Possibly damaged","det_method":"Photo-interpretation","notation":"Building point","or_src_id":978,"dmg_src_id":5,"cd_value":"Not Applicable"},"geometry":{"type":"Point","coordinates":[-68.82521613,10.25250631]}},{"type":"Feature","properties":{"obj_type":"11-Residential Buildings","name":"Unknown","info":"997-Not Applicable","simplified":"Residential","damage_gra":"Possibly damaged","det_method":"Photo-interpretation","notation":"Building point","or_src_id":978,"dmg_src_id":5,"cd_value":"Not Applicable"},"geometry":{"type":"Point","coordinates":[-68.84241626,10.25268637]}},{"type":"Feature","properties":{"obj_type":"11-Residential Buildings","name":"Unknown","info":"997-Not Applicable","simplified":"Residential","damage_gra":"Possibly damaged","det_method":"Photo-interpretation","notation":"Building point","or_src_id":978,"dmg_src_id":5,"cd_value":"Not Applicable"},"geometry":{"type":"Point","coordinates":[-68.8265814,10.2533153]}},{"type":"Feature","properties":{"obj_type":"11-Residential Buildings","name":"Unknown","info":"997-Not Applicable","simplified":"Residential","damage_gra":"Possibly damaged","det_method":"Photo-interpretation","notation":"Building point","or_src_id":978,"dmg_src_id":5,"cd_value":"Not Applicable"},"geometry":{"type":"Point","coordinates":[-68.82665963,10.25389386]}},{"type":"Feature","properties":{"obj_type":"11-Residential Buildings","name":"Unknown","info":"997-Not Applicable","simplified":"Residential","damage_gra":"Possibly damaged","det_method":"Photo-interpretation","notation":"Building point","or_src_id":978,"dmg_src_id":5,"cd_value":"Not Applicable"},"geometry":{"type":"Point","coordinates":[-68.7757797,10.24921535]}},{"type":"Feature","properties":{"obj_type":"11-Residential Buildings","name":"Unknown","info":"997-Not Applicable","simplified":"Residential","damage_gra":"Possibly damaged","det_method":"Photo-interpretation","notation":"Building point","or_src_id":978,"dmg_src_id":5,"cd_value":"Not Applicable"},"geometry":{"type":"Point","coordinates":[-68.77583905,10.2492906]}},{"type":"Feature","properties":{"obj_type":"11-Residential Buildings","name":"Unknown","info":"997-Not Applicable","simplified":"Residential","damage_gra":"Possibly damaged","det_method":"Photo-interpretation","notation":"Building point","or_src_id":978,"dmg_src_id":5,"cd_value":"Not Applicable"},"geometry":{"type":"Point","coordinates":[-68.7759263,10.249343]}},{"type":"Feature","properties":{"obj_type":"11-Residential Buildings","name":"Unknown","info":"997-Not Applicable","simplified":"Residential","damage_gra":"Possibly damaged","det_method":"Photo-interpretation","notation":"Building point","or_src_id":978,"dmg_src_id":5,"cd_value":"Not Applicable"},"geometry":{"type":"Point","coordinates":[-68.7783952,10.24971283]}},{"type":"Feature","properties":{"obj_type":"11-Residential Buildings","name":"Unknown","info":"997-Not Applicable","simplified":"Residential","damage_gra":"Possibly damaged","det_method":"Photo-interpretation","notation":"Building point","or_src_id":978,"dmg_src_id":5,"cd_value":"Not Applicable"},"geometry":{"type":"Point","coordinates":[-68.77818152,10.24992387]}},{"type":"Feature","properties":{"obj_type":"11-Residential Buildings","name":"Unknown","info":"997-Not Applicable","simplified":"Residential","damage_gra":"Possibly damaged","det_method":"Photo-interpretation","notation":"Building point","or_src_id":978,"dmg_src_id":5,"cd_value":"Not Applicable"},"geometry":{"type":"Point","coordinates":[-68.8250994,10.2525951]}},{"type":"Feature","properties":{"obj_type":"11-Residential Buildings","name":"Unknown","info":"997-Not Applicable","simplified":"Residential","damage_gra":"Possibly damaged","det_method":"Photo-interpretation","notation":"Building point","or_src_id":978,"dmg_src_id":5,"cd_value":"Not Applicable"},"geometry":{"type":"Point","coordinates":[-68.8245166,10.2536515]}},{"type":"Feature","properties":{"obj_type":"11-Residential Buildings","name":"Unknown","info":"997-Not Applicable","simplified":"Residential","damage_gra":"Possibly damaged","det_method":"Photo-interpretation","notation":"Building point","or_src_id":978,"dmg_src_id":5,"cd_value":"Not Applicable"},"geometry":{"type":"Point","coordinates":[-68.82455073,10.25379928]}},{"type":"Feature","properties":{"obj_type":"11-Residential Buildings","name":"Unknown","info":"997-Not Applicable","simplified":"Residential","damage_gra":"Possibly damaged","det_method":"Photo-interpretation","notation":"Building point","or_src_id":978,"dmg_src_id":5,"cd_value":"Not Applicable"},"geometry":{"type":"Point","coordinates":[-68.82466041,10.2538261]}},{"type":"Feature","properties":{"obj_type":"11-Residential Buildings","name":"Unknown","info":"997-Not Applicable","simplified":"Residential","damage_gra":"Possibly damaged","det_method":"Photo-interpretation","notation":"Building point","or_src_id":978,"dmg_src_id":5,"cd_value":"Not Applicable"},"geometry":{"type":"Point","coordinates":[-68.80012455,10.2575574]}},{"type":"Feature","properties":{"obj_type":"11-Residential Buildings","name":"Unknown","info":"997-Not Applicable","simplified":"Residential","damage_gra":"Possibly damaged","det_method":"Photo-interpretation","notation":"Building point","or_src_id":978,"dmg_src_id":5,"cd_value":"Not Applicable"},"geometry":{"type":"Point","coordinates":[-68.8277221,10.25421475]}},{"type":"Feature","properties":{"obj_type":"11-Residential Buildings","name":"Unknown","info":"997-Not Applicable","simplified":"Residential","damage_gra":"Possibly damaged","det_method":"Photo-interpretation","notation":"Building point","or_src_id":978,"dmg_src_id":5,"cd_value":"Not Applicable"},"geometry":{"type":"Point","coordinates":[-68.8278109,10.25425835]}},{"type":"Feature","properties":{"obj_type":"11-Residential Buildings","name":"Unknown","info":"997-Not Applicable","simplified":"Residential","damage_gra":"Possibly damaged","det_method":"Photo-interpretation","notation":"Building point","or_src_id":978,"dmg_src_id":5,"cd_value":"Not Applicable"},"geometry":{"type":"Point","coordinates":[-68.82776405,10.25427945]}},{"type":"Feature","properties":{"obj_type":"11-Residential Buildings","name":"Unknown","info":"997-Not Applicable","simplified":"Residential","damage_gra":"Possibly damaged","det_method":"Photo-interpretation","notation":"Building point","or_src_id":978,"dmg_src_id":5,"cd_value":"Not Applicable"},"geometry":{"type":"Point","coordinates":[-68.82654065,10.25532588]}},{"type":"Feature","properties":{"obj_type":"11-Residential Buildings","name":"Unknown","info":"997-Not Applicable","simplified":"Residential","damage_gra":"Possibly damaged","det_method":"Photo-interpretation","notation":"Building point","or_src_id":978,"dmg_src_id":5,"cd_value":"Not Applicable"},"geometry":{"type":"Point","coordinates":[-68.8264768,10.2553656]}},{"type":"Feature","properties":{"obj_type":"11-Residential Buildings","name":"Unknown","info":"997-Not Applicable","simplified":"Residential","damage_gra":"Possibly damaged","det_method":"Photo-interpretation","notation":"Building point","or_src_id":978,"dmg_src_id":5,"cd_value":"Not Applicable"},"geometry":{"type":"Point","coordinates":[-68.8265921,10.2554102]}},{"type":"Feature","properties":{"obj_type":"11-Residential Buildings","name":"Unknown","info":"997-Not Applicable","simplified":"Residential","damage_gra":"Possibly damaged","det_method":"Photo-interpretation","notation":"Building point","or_src_id":978,"dmg_src_id":5,"cd_value":"Not Applicable"},"geometry":{"type":"Point","coordinates":[-68.82664277,10.255499]}},{"type":"Feature","properties":{"obj_type":"11-Residential Buildings","name":"Unknown","info":"997-Not Applicable","simplified":"Residential","damage_gra":"Possibly damaged","det_method":"Photo-interpretation","notation":"Building point","or_src_id":978,"dmg_src_id":5,"cd_value":"Not Applicable"},"geometry":{"type":"Point","coordinates":[-68.80010125,10.25808425]}},{"type":"Feature","properties":{"obj_type":"11-Residential Buildings","name":"Unknown","info":"997-Not Applicable","simplified":"Residential","damage_gra":"Possibly damaged","det_method":"Photo-interpretation","notation":"Building point","or_src_id":978,"dmg_src_id":5,"cd_value":"Not Applicable"},"geometry":{"type":"Point","coordinates":[-68.81582413,10.25952277]}},{"type":"Feature","properties":{"obj_type":"11-Residential Buildings","name":"Unknown","info":"997-Not Applicable","simplified":"Residential","damage_gra":"Possibly damaged","det_method":"Photo-interpretation","notation":"Building point","or_src_id":978,"dmg_src_id":5,"cd_value":"Not Applicable"},"geometry":{"type":"Point","coordinates":[-68.8160934,10.25984508]}},{"type":"Feature","properties":{"obj_type":"11-Residential Buildings","name":"Unknown","info":"997-Not Applicable","simplified":"Residential","damage_gra":"Possibly damaged","det_method":"Photo-interpretation","notation":"Building point","or_src_id":978,"dmg_src_id":5,"cd_value":"Not Applicable"},"geometry":{"type":"Point","coordinates":[-68.81672301,10.25992283]}},{"type":"Feature","properties":{"obj_type":"11-Residential Buildings","name":"Unknown","info":"997-Not Applicable","simplified":"Residential","damage_gra":"Possibly damaged","det_method":"Photo-interpretation","notation":"Building point","or_src_id":978,"dmg_src_id":5,"cd_value":"Not Applicable"},"geometry":{"type":"Point","coordinates":[-68.81825361,10.26048408]}},{"type":"Feature","properties":{"obj_type":"11-Residential Buildings","name":"Unknown","info":"997-Not Applicable","simplified":"Residential","damage_gra":"Possibly damaged","det_method":"Photo-interpretation","notation":"Building point","or_src_id":978,"dmg_src_id":5,"cd_value":"Not Applicable"},"geometry":{"type":"Point","coordinates":[-68.81829869,10.26059468]}},{"type":"Feature","properties":{"obj_type":"11-Residential Buildings","name":"Unknown","info":"997-Not Applicable","simplified":"Residential","damage_gra":"Possibly damaged","det_method":"Photo-interpretation","notation":"Building point","or_src_id":978,"dmg_src_id":5,"cd_value":"Not Applicable"},"geometry":{"type":"Point","coordinates":[-68.81946555,10.26062275]}},{"type":"Feature","properties":{"obj_type":"11-Residential Buildings","name":"Unknown","info":"997-Not Applicable","simplified":"Residential","damage_gra":"Possibly damaged","det_method":"Photo-interpretation","notation":"Building point","or_src_id":978,"dmg_src_id":5,"cd_value":"Not Applicable"},"geometry":{"type":"Point","coordinates":[-68.78979675,10.31462305]}},{"type":"Feature","properties":{"obj_type":"11-Residential Buildings","name":"Unknown","info":"997-Not Applicable","simplified":"Residential","damage_gra":"Possibly damaged","det_method":"Photo-interpretation","notation":"Building point","or_src_id":978,"dmg_src_id":5,"cd_value":"Not Applicable"},"geometry":{"type":"Point","coordinates":[-68.79072608,10.31705829]}},{"type":"Feature","properties":{"obj_type":"11-Residential Buildings","name":"Unknown","info":"997-Not Applicable","simplified":"Residential","damage_gra":"Possibly damaged","det_method":"Photo-interpretation","notation":"Building point","or_src_id":978,"dmg_src_id":5,"cd_value":"Not Applicable"},"geometry":{"type":"Point","coordinates":[-68.7913182,10.3172995]}},{"type":"Feature","properties":{"obj_type":"11-Residential Buildings","name":"Unknown","info":"997-Not Applicable","simplified":"Residential","damage_gra":"Possibly damaged","det_method":"Photo-interpretation","notation":"Building point","or_src_id":978,"dmg_src_id":5,"cd_value":"Not Applicable"},"geometry":{"type":"Point","coordinates":[-68.78605828,10.2433417]}},{"type":"Feature","properties":{"obj_type":"11-Residential Buildings","name":"Unknown","info":"997-Not Applicable","simplified":"Residential","damage_gra":"Possibly damaged","det_method":"Photo-interpretation","notation":"Building point","or_src_id":978,"dmg_src_id":5,"cd_value":"Not Applicable"},"geometry":{"type":"Point","coordinates":[-68.78674315,10.2439194]}},{"type":"Feature","properties":{"obj_type":"11-Residential Buildings","name":"Unknown","info":"997-Not Applicable","simplified":"Residential","damage_gra":"Possibly damaged","det_method":"Photo-interpretation","notation":"Building point","or_src_id":978,"dmg_src_id":5,"cd_value":"Not Applicable"},"geometry":{"type":"Point","coordinates":[-68.78568569,10.24397738]}},{"type":"Feature","properties":{"obj_type":"11-Residential Buildings","name":"Unknown","info":"997-Not Applicable","simplified":"Residential","damage_gra":"Possibly damaged","det_method":"Photo-interpretation","notation":"Building point","or_src_id":978,"dmg_src_id":5,"cd_value":"Not Applicable"},"geometry":{"type":"Point","coordinates":[-68.78662717,10.24403994]}},{"type":"Feature","properties":{"obj_type":"11-Residential Buildings","name":"Unknown","info":"997-Not Applicable","simplified":"Residential","damage_gra":"Possibly damaged","det_method":"Photo-interpretation","notation":"Building point","or_src_id":978,"dmg_src_id":5,"cd_value":"Not Applicable"},"geometry":{"type":"Point","coordinates":[-68.78502765,10.24466733]}},{"type":"Feature","properties":{"obj_type":"11-Residential Buildings","name":"Unknown","info":"997-Not Applicable","simplified":"Residential","damage_gra":"Possibly damaged","det_method":"Photo-interpretation","notation":"Building point","or_src_id":978,"dmg_src_id":5,"cd_value":"Not Applicable"},"geometry":{"type":"Point","coordinates":[-68.78496767,10.24471073]}},{"type":"Feature","properties":{"obj_type":"11-Residential Buildings","name":"Unknown","info":"997-Not Applicable","simplified":"Residential","damage_gra":"Possibly damaged","det_method":"Photo-interpretation","notation":"Building point","or_src_id":978,"dmg_src_id":5,"cd_value":"Not Applicable"},"geometry":{"type":"Point","coordinates":[-68.78488955,10.24476046]}},{"type":"Feature","properties":{"obj_type":"11-Residential Buildings","name":"Unknown","info":"997-Not Applicable","simplified":"Residential","damage_gra":"Possibly damaged","det_method":"Photo-interpretation","notation":"Building point","or_src_id":978,"dmg_src_id":5,"cd_value":"Not Applicable"},"geometry":{"type":"Point","coordinates":[-68.7848583,10.2448353]}},{"type":"Feature","properties":{"obj_type":"11-Residential Buildings","name":"Unknown","info":"997-Not Applicable","simplified":"Residential","damage_gra":"Possibly damaged","det_method":"Photo-interpretation","notation":"Building point","or_src_id":978,"dmg_src_id":5,"cd_value":"Not Applicable"},"geometry":{"type":"Point","coordinates":[-68.77192407,10.24532823]}},{"type":"Feature","properties":{"obj_type":"11-Residential Buildings","name":"Unknown","info":"997-Not Applicable","simplified":"Residential","damage_gra":"Possibly damaged","det_method":"Photo-interpretation","notation":"Building point","or_src_id":978,"dmg_src_id":5,"cd_value":"Not Applicable"},"geometry":{"type":"Point","coordinates":[-68.77291674,10.24711792]}},{"type":"Feature","properties":{"obj_type":"11-Residential Buildings","name":"Unknown","info":"997-Not Applicable","simplified":"Residential","damage_gra":"Possibly damaged","det_method":"Photo-interpretation","notation":"Building point","or_src_id":978,"dmg_src_id":5,"cd_value":"Not Applicable"},"geometry":{"type":"Point","coordinates":[-68.79115195,10.31751491]}},{"type":"Feature","properties":{"obj_type":"11-Residential Buildings","name":"Unknown","info":"997-Not Applicable","simplified":"Residential","damage_gra":"Possibly damaged","det_method":"Photo-interpretation","notation":"Building point","or_src_id":978,"dmg_src_id":5,"cd_value":"Not Applicable"},"geometry":{"type":"Point","coordinates":[-68.79071858,10.31751588]}},{"type":"Feature","properties":{"obj_type":"11-Residential Buildings","name":"Unknown","info":"997-Not Applicable","simplified":"Residential","damage_gra":"Possibly damaged","det_method":"Photo-interpretation","notation":"Building point","or_src_id":978,"dmg_src_id":5,"cd_value":"Not Applicable"},"geometry":{"type":"Point","coordinates":[-68.7916461,10.3175787]}},{"type":"Feature","properties":{"obj_type":"11-Residential Buildings","name":"Unknown","info":"997-Not Applicable","simplified":"Residential","damage_gra":"Possibly damaged","det_method":"Photo-interpretation","notation":"Building point","or_src_id":978,"dmg_src_id":5,"cd_value":"Not Applicable"},"geometry":{"type":"Point","coordinates":[-68.79179105,10.31762218]}},{"type":"Feature","properties":{"obj_type":"11-Residential Buildings","name":"Unknown","info":"997-Not Applicable","simplified":"Residential","damage_gra":"Damaged","det_method":"Photo-interpretation","notation":"Building point","or_src_id":978,"dmg_src_id":5,"cd_value":"Not Applicable"},"geometry":{"type":"Point","coordinates":[-68.79115738,10.31793781]}},{"type":"Feature","properties":{"obj_type":"11-Residential Buildings","name":"Unknown","info":"997-Not Applicable","simplified":"Residential","damage_gra":"Possibly damaged","det_method":"Photo-interpretation","notation":"Building point","or_src_id":978,"dmg_src_id":5,"cd_value":"Not Applicable"},"geometry":{"type":"Point","coordinates":[-68.79301269,10.31910743]}},{"type":"Feature","properties":{"obj_type":"11-Residential Buildings","name":"Unknown","info":"997-Not Applicable","simplified":"Residential","damage_gra":"Possibly damaged","det_method":"Photo-interpretation","notation":"Building point","or_src_id":978,"dmg_src_id":5,"cd_value":"Not Applicable"},"geometry":{"type":"Point","coordinates":[-68.79312392,10.31931189]}},{"type":"Feature","properties":{"obj_type":"11-Residential Buildings","name":"Unknown","info":"997-Not Applicable","simplified":"Residential","damage_gra":"Possibly damaged","det_method":"Photo-interpretation","notation":"Building point","or_src_id":978,"dmg_src_id":5,"cd_value":"Not Applicable"},"geometry":{"type":"Point","coordinates":[-68.76083967,10.32511811]}},{"type":"Feature","properties":{"obj_type":"11-Residential Buildings","name":"Unknown","info":"997-Not Applicable","simplified":"Residential","damage_gra":"Possibly damaged","det_method":"Photo-interpretation","notation":"Building point","or_src_id":978,"dmg_src_id":5,"cd_value":"Not Applicable"},"geometry":{"type":"Point","coordinates":[-68.76077077,10.32518586]}},{"type":"Feature","properties":{"obj_type":"11-Residential Buildings","name":"Unknown","info":"997-Not Applicable","simplified":"Residential","damage_gra":"Possibly damaged","det_method":"Photo-interpretation","notation":"Building point","or_src_id":978,"dmg_src_id":5,"cd_value":"Not Applicable"},"geometry":{"type":"Point","coordinates":[-68.76053895,10.3256577]}},{"type":"Feature","properties":{"obj_type":"11-Residential Buildings","name":"Unknown","info":"997-Not Applicable","simplified":"Residential","damage_gra":"Possibly damaged","det_method":"Photo-interpretation","notation":"Building point","or_src_id":978,"dmg_src_id":5,"cd_value":"Not Applicable"},"geometry":{"type":"Point","coordinates":[-68.7478731,10.32635302]}},{"type":"Feature","properties":{"obj_type":"11-Residential Buildings","name":"Unknown","info":"997-Not Applicable","simplified":"Residential","damage_gra":"Possibly damaged","det_method":"Photo-interpretation","notation":"Building point","or_src_id":978,"dmg_src_id":5,"cd_value":"Not Applicable"},"geometry":{"type":"Point","coordinates":[-68.74796687,10.32642785]}},{"type":"Feature","properties":{"obj_type":"11-Residential Buildings","name":"Unknown","info":"997-Not Applicable","simplified":"Residential","damage_gra":"Possibly damaged","det_method":"Photo-interpretation","notation":"Building point","or_src_id":978,"dmg_src_id":5,"cd_value":"Not Applicable"},"geometry":{"type":"Point","coordinates":[-68.7481214,10.32650935]}},{"type":"Feature","properties":{"obj_type":"11-Residential Buildings","name":"Unknown","info":"997-Not Applicable","simplified":"Residential","damage_gra":"Possibly damaged","det_method":"Photo-interpretation","notation":"Building point","or_src_id":978,"dmg_src_id":5,"cd_value":"Not Applicable"},"geometry":{"type":"Point","coordinates":[-68.74769133,10.32663631]}},{"type":"Feature","properties":{"obj_type":"11-Residential Buildings","name":"Unknown","info":"997-Not Applicable","simplified":"Residential","damage_gra":"Possibly damaged","det_method":"Photo-interpretation","notation":"Building point","or_src_id":978,"dmg_src_id":5,"cd_value":"Not Applicable"},"geometry":{"type":"Point","coordinates":[-68.74814153,10.32664567]}},{"type":"Feature","properties":{"obj_type":"11-Residential Buildings","name":"Unknown","info":"997-Not Applicable","simplified":"Residential","damage_gra":"Possibly damaged","det_method":"Photo-interpretation","notation":"Building point","or_src_id":978,"dmg_src_id":5,"cd_value":"Not Applicable"},"geometry":{"type":"Point","coordinates":[-68.74789547,10.32670685]}},{"type":"Feature","properties":{"obj_type":"11-Residential Buildings","name":"Unknown","info":"997-Not Applicable","simplified":"Residential","damage_gra":"Possibly damaged","det_method":"Photo-interpretation","notation":"Building point","or_src_id":978,"dmg_src_id":5,"cd_value":"Not Applicable"},"geometry":{"type":"Point","coordinates":[-68.74245665,10.3352738]}},{"type":"Feature","properties":{"obj_type":"11-Residential Buildings","name":"Unknown","info":"997-Not Applicable","simplified":"Residential","damage_gra":"Possibly damaged","det_method":"Photo-interpretation","notation":"Building point","or_src_id":978,"dmg_src_id":5,"cd_value":"Not Applicable"},"geometry":{"type":"Point","coordinates":[-68.74208564,10.33558586]}},{"type":"Feature","properties":{"obj_type":"11-Residential Buildings","name":"Unknown","info":"997-Not Applicable","simplified":"Residential","damage_gra":"Possibly damaged","det_method":"Photo-interpretation","notation":"Building point","or_src_id":978,"dmg_src_id":5,"cd_value":"Not Applicable"},"geometry":{"type":"Point","coordinates":[-68.74224293,10.33559467]}},{"type":"Feature","properties":{"obj_type":"11-Residential Buildings","name":"Unknown","info":"997-Not Applicable","simplified":"Residential","damage_gra":"Possibly damaged","det_method":"Photo-interpretation","notation":"Building point","or_src_id":978,"dmg_src_id":5,"cd_value":"Not Applicable"},"geometry":{"type":"Point","coordinates":[-68.74207581,10.33567102]}},{"type":"Feature","properties":{"obj_type":"11-Residential Buildings","name":"Unknown","info":"997-Not Applicable","simplified":"Residential","damage_gra":"Possibly damaged","det_method":"Photo-interpretation","notation":"Building point","or_src_id":978,"dmg_src_id":5,"cd_value":"Not Applicable"},"geometry":{"type":"Point","coordinates":[-68.7421173,10.3357103]}},{"type":"Feature","properties":{"obj_type":"11-Residential Buildings","name":"Unknown","info":"997-Not Applicable","simplified":"Residential","damage_gra":"Possibly damaged","det_method":"Photo-interpretation","notation":"Building point","or_src_id":978,"dmg_src_id":5,"cd_value":"Not Applicable"},"geometry":{"type":"Point","coordinates":[-68.74234908,10.33575166]}},{"type":"Feature","properties":{"obj_type":"11-Residential Buildings","name":"Unknown","info":"997-Not Applicable","simplified":"Residential","damage_gra":"Possibly damaged","det_method":"Photo-interpretation","notation":"Building point","or_src_id":978,"dmg_src_id":5,"cd_value":"Not Applicable"},"geometry":{"type":"Point","coordinates":[-68.74681851,10.33690256]}},{"type":"Feature","properties":{"obj_type":"11-Residential Buildings","name":"Unknown","info":"997-Not Applicable","simplified":"Residential","damage_gra":"Possibly damaged","det_method":"Photo-interpretation","notation":"Building point","or_src_id":978,"dmg_src_id":5,"cd_value":"Not Applicable"},"geometry":{"type":"Point","coordinates":[-68.74658554,10.33697173]}},{"type":"Feature","properties":{"obj_type":"11-Residential Buildings","name":"Unknown","info":"997-Not Applicable","simplified":"Residential","damage_gra":"Possibly damaged","det_method":"Photo-interpretation","notation":"Building point","or_src_id":978,"dmg_src_id":5,"cd_value":"Not Applicable"},"geometry":{"type":"Point","coordinates":[-68.74694806,10.33699185]}},{"type":"Feature","properties":{"obj_type":"11-Residential Buildings","name":"Unknown","info":"997-Not Applicable","simplified":"Residential","damage_gra":"Possibly damaged","det_method":"Photo-interpretation","notation":"Building point","or_src_id":978,"dmg_src_id":5,"cd_value":"Not Applicable"},"geometry":{"type":"Point","coordinates":[-68.74756745,10.3371514]}},{"type":"Feature","properties":{"obj_type":"11-Residential Buildings","name":"Unknown","info":"997-Not Applicable","simplified":"Residential","damage_gra":"Possibly damaged","det_method":"Photo-interpretation","notation":"Building point","or_src_id":978,"dmg_src_id":5,"cd_value":"Not Applicable"},"geometry":{"type":"Point","coordinates":[-68.74758738,10.33742828]}},{"type":"Feature","properties":{"obj_type":"11-Residential Buildings","name":"Unknown","info":"997-Not Applicable","simplified":"Residential","damage_gra":"Possibly damaged","det_method":"Photo-interpretation","notation":"Building point","or_src_id":978,"dmg_src_id":5,"cd_value":"Not Applicable"},"geometry":{"type":"Point","coordinates":[-68.71919653,10.33609558]}},{"type":"Feature","properties":{"obj_type":"11-Residential Buildings","name":"Unknown","info":"997-Not Applicable","simplified":"Residential","damage_gra":"Possibly damaged","det_method":"Photo-interpretation","notation":"Building point","or_src_id":978,"dmg_src_id":5,"cd_value":"Not Applicable"},"geometry":{"type":"Point","coordinates":[-68.7193156,10.33615543]}},{"type":"Feature","properties":{"obj_type":"11-Residential Buildings","name":"Unknown","info":"997-Not Applicable","simplified":"Residential","damage_gra":"Possibly damaged","det_method":"Photo-interpretation","notation":"Building point","or_src_id":978,"dmg_src_id":5,"cd_value":"Not Applicable"},"geometry":{"type":"Point","coordinates":[-68.7190087,10.33624618]}},{"type":"Feature","properties":{"obj_type":"11-Residential Buildings","name":"Unknown","info":"997-Not Applicable","simplified":"Residential","damage_gra":"Possibly damaged","det_method":"Photo-interpretation","notation":"Building point","or_src_id":978,"dmg_src_id":5,"cd_value":"Not Applicable"},"geometry":{"type":"Point","coordinates":[-68.71946185,10.33627065]}},{"type":"Feature","properties":{"obj_type":"11-Residential Buildings","name":"Unknown","info":"997-Not Applicable","simplified":"Residential","damage_gra":"Possibly damaged","det_method":"Photo-interpretation","notation":"Building point","or_src_id":978,"dmg_src_id":5,"cd_value":"Not Applicable"},"geometry":{"type":"Point","coordinates":[-68.71891466,10.33630658]}},{"type":"Feature","properties":{"obj_type":"11-Residential Buildings","name":"Unknown","info":"997-Not Applicable","simplified":"Residential","damage_gra":"Possibly damaged","det_method":"Photo-interpretation","notation":"Building point","or_src_id":978,"dmg_src_id":5,"cd_value":"Not Applicable"},"geometry":{"type":"Point","coordinates":[-68.71883593,10.33641455]}},{"type":"Feature","properties":{"obj_type":"11-Residential Buildings","name":"Unknown","info":"997-Not Applicable","simplified":"Residential","damage_gra":"Possibly damaged","det_method":"Photo-interpretation","notation":"Building point","or_src_id":978,"dmg_src_id":5,"cd_value":"Not Applicable"},"geometry":{"type":"Point","coordinates":[-68.71908979,10.33653032]}},{"type":"Feature","properties":{"obj_type":"11-Residential Buildings","name":"Unknown","info":"997-Not Applicable","simplified":"Residential","damage_gra":"Possibly damaged","det_method":"Photo-interpretation","notation":"Building point","or_src_id":978,"dmg_src_id":5,"cd_value":"Not Applicable"},"geometry":{"type":"Point","coordinates":[-68.71887006,10.33683093]}},{"type":"Feature","properties":{"obj_type":"11-Residential Buildings","name":"Unknown","info":"997-Not Applicable","simplified":"Residential","damage_gra":"Possibly damaged","det_method":"Photo-interpretation","notation":"Building point","or_src_id":978,"dmg_src_id":5,"cd_value":"Not Applicable"},"geometry":{"type":"Point","coordinates":[-68.71950035,10.33728545]}},{"type":"Feature","properties":{"obj_type":"11-Residential Buildings","name":"Unknown","info":"997-Not Applicable","simplified":"Residential","damage_gra":"Possibly damaged","det_method":"Photo-interpretation","notation":"Building point","or_src_id":978,"dmg_src_id":5,"cd_value":"Not Applicable"},"geometry":{"type":"Point","coordinates":[-68.71958228,10.33729645]}},{"type":"Feature","properties":{"obj_type":"11-Residential Buildings","name":"Unknown","info":"997-Not Applicable","simplified":"Residential","damage_gra":"Possibly damaged","det_method":"Photo-interpretation","notation":"Building point","or_src_id":978,"dmg_src_id":5,"cd_value":"Not Applicable"},"geometry":{"type":"Point","coordinates":[-68.74640723,10.33766703]}},{"type":"Feature","properties":{"obj_type":"11-Residential Buildings","name":"Unknown","info":"997-Not Applicable","simplified":"Residential","damage_gra":"Possibly damaged","det_method":"Photo-interpretation","notation":"Building point","or_src_id":978,"dmg_src_id":5,"cd_value":"Not Applicable"},"geometry":{"type":"Point","coordinates":[-68.7478211,10.33777245]}},{"type":"Feature","properties":{"obj_type":"11-Residential Buildings","name":"Unknown","info":"997-Not Applicable","simplified":"Residential","damage_gra":"Possibly damaged","det_method":"Photo-interpretation","notation":"Building point","or_src_id":978,"dmg_src_id":5,"cd_value":"Not Applicable"},"geometry":{"type":"Point","coordinates":[-68.74681593,10.33791323]}},{"type":"Feature","properties":{"obj_type":"11-Residential Buildings","name":"Unknown","info":"997-Not Applicable","simplified":"Residential","damage_gra":"Possibly damaged","det_method":"Photo-interpretation","notation":"Building point","or_src_id":978,"dmg_src_id":5,"cd_value":"Not Applicable"},"geometry":{"type":"Point","coordinates":[-68.7474239,10.3379993]}},{"type":"Feature","properties":{"obj_type":"11-Residential Buildings","name":"Unknown","info":"997-Not Applicable","simplified":"Residential","damage_gra":"Possibly damaged","det_method":"Photo-interpretation","notation":"Building point","or_src_id":978,"dmg_src_id":5,"cd_value":"Not Applicable"},"geometry":{"type":"Point","coordinates":[-68.74672652,10.33805007]}},{"type":"Feature","properties":{"obj_type":"11-Residential Buildings","name":"Unknown","info":"997-Not Applicable","simplified":"Residential","damage_gra":"Possibly damaged","det_method":"Photo-interpretation","notation":"Building point","or_src_id":978,"dmg_src_id":5,"cd_value":"Not Applicable"},"geometry":{"type":"Point","coordinates":[-68.7474882,10.33808025]}},{"type":"Feature","properties":{"obj_type":"11-Residential Buildings","name":"Unknown","info":"997-Not Applicable","simplified":"Residential","damage_gra":"Possibly damaged","det_method":"Photo-interpretation","notation":"Building point","or_src_id":978,"dmg_src_id":5,"cd_value":"Not Applicable"},"geometry":{"type":"Point","coordinates":[-68.74812906,10.33817652]}},{"type":"Feature","properties":{"obj_type":"11-Residential Buildings","name":"Unknown","info":"997-Not Applicable","simplified":"Residential","damage_gra":"Possibly damaged","det_method":"Photo-interpretation","notation":"Building point","or_src_id":978,"dmg_src_id":5,"cd_value":"Not Applicable"},"geometry":{"type":"Point","coordinates":[-68.74717078,10.33830285]}},{"type":"Feature","properties":{"obj_type":"11-Residential Buildings","name":"Unknown","info":"997-Not Applicable","simplified":"Residential","damage_gra":"Possibly damaged","det_method":"Photo-interpretation","notation":"Building point","or_src_id":978,"dmg_src_id":5,"cd_value":"Not Applicable"},"geometry":{"type":"Point","coordinates":[-68.74730291,10.33842071]}},{"type":"Feature","properties":{"obj_type":"11-Residential Buildings","name":"Unknown","info":"997-Not Applicable","simplified":"Residential","damage_gra":"Damaged","det_method":"Photo-interpretation","notation":"Building point","or_src_id":978,"dmg_src_id":5,"cd_value":"Not Applicable"},"geometry":{"type":"Point","coordinates":[-68.73705807,10.33849212]}},{"type":"Feature","properties":{"obj_type":"11-Residential Buildings","name":"Unknown","info":"997-Not Applicable","simplified":"Residential","damage_gra":"Damaged","det_method":"Photo-interpretation","notation":"Building point","or_src_id":978,"dmg_src_id":5,"cd_value":"Not Applicable"},"geometry":{"type":"Point","coordinates":[-68.73544175,10.33815035]}},{"type":"Feature","properties":{"obj_type":"11-Residential Buildings","name":"Unknown","info":"997-Not Applicable","simplified":"Residential","damage_gra":"Damaged","det_method":"Photo-interpretation","notation":"Building point","or_src_id":978,"dmg_src_id":5,"cd_value":"Not Applicable"},"geometry":{"type":"Point","coordinates":[-68.73568681,10.33819322]}},{"type":"Feature","properties":{"obj_type":"11-Residential Buildings","name":"Unknown","info":"997-Not Applicable","simplified":"Residential","damage_gra":"Damaged","det_method":"Photo-interpretation","notation":"Building point","or_src_id":978,"dmg_src_id":5,"cd_value":"Not Applicable"},"geometry":{"type":"Point","coordinates":[-68.73553434,10.33826141]}},{"type":"Feature","properties":{"obj_type":"11-Residential Buildings","name":"Unknown","info":"997-Not Applicable","simplified":"Residential","damage_gra":"Possibly damaged","det_method":"Photo-interpretation","notation":"Building point","or_src_id":978,"dmg_src_id":5,"cd_value":"Not Applicable"},"geometry":{"type":"Point","coordinates":[-68.73569257,10.3384753]}},{"type":"Feature","properties":{"obj_type":"11-Residential Buildings","name":"Unknown","info":"997-Not Applicable","simplified":"Residential","damage_gra":"Damaged","det_method":"Photo-interpretation","notation":"Building point","or_src_id":978,"dmg_src_id":5,"cd_value":"Not Applicable"},"geometry":{"type":"Point","coordinates":[-68.73596351,10.33851998]}},{"type":"Feature","properties":{"obj_type":"11-Residential Buildings","name":"Unknown","info":"997-Not Applicable","simplified":"Residential","damage_gra":"Damaged","det_method":"Photo-interpretation","notation":"Building point","or_src_id":978,"dmg_src_id":5,"cd_value":"Not Applicable"},"geometry":{"type":"Point","coordinates":[-68.7356467,10.3386617]}},{"type":"Feature","properties":{"obj_type":"11-Residential Buildings","name":"Unknown","info":"997-Not Applicable","simplified":"Residential","damage_gra":"Possibly damaged","det_method":"Photo-interpretation","notation":"Building point","or_src_id":978,"dmg_src_id":5,"cd_value":"Not Applicable"},"geometry":{"type":"Point","coordinates":[-68.73683155,10.3390053]}},{"type":"Feature","properties":{"obj_type":"11-Residential Buildings","name":"Unknown","info":"997-Not Applicable","simplified":"Residential","damage_gra":"Damaged","det_method":"Photo-interpretation","notation":"Building point","or_src_id":978,"dmg_src_id":5,"cd_value":"Not Applicable"},"geometry":{"type":"Point","coordinates":[-68.73678372,10.3390451]}},{"type":"Feature","properties":{"obj_type":"11-Residential Buildings","name":"Unknown","info":"997-Not Applicable","simplified":"Residential","damage_gra":"Damaged","det_method":"Photo-interpretation","notation":"Building point","or_src_id":978,"dmg_src_id":5,"cd_value":"Not Applicable"},"geometry":{"type":"Point","coordinates":[-68.73551135,10.33909681]}},{"type":"Feature","properties":{"obj_type":"11-Residential Buildings","name":"Unknown","info":"997-Not Applicable","simplified":"Residential","damage_gra":"Damaged","det_method":"Photo-interpretation","notation":"Building point","or_src_id":978,"dmg_src_id":5,"cd_value":"Not Applicable"},"geometry":{"type":"Point","coordinates":[-68.7369632,10.3394523]}},{"type":"Feature","properties":{"obj_type":"11-Residential Buildings","name":"Unknown","info":"997-Not Applicable","simplified":"Residential","damage_gra":"Possibly damaged","det_method":"Photo-interpretation","notation":"Building point","or_src_id":978,"dmg_src_id":5,"cd_value":"Not Applicable"},"geometry":{"type":"Point","coordinates":[-68.73752026,10.33866969]}},{"type":"Feature","properties":{"obj_type":"11-Residential Buildings","name":"Unknown","info":"997-Not Applicable","simplified":"Residential","damage_gra":"Possibly damaged","det_method":"Photo-interpretation","notation":"Building point","or_src_id":978,"dmg_src_id":5,"cd_value":"Not Applicable"},"geometry":{"type":"Point","coordinates":[-68.73778585,10.33889142]}},{"type":"Feature","properties":{"obj_type":"11-Residential Buildings","name":"Unknown","info":"997-Not Applicable","simplified":"Residential","damage_gra":"Damaged","det_method":"Photo-interpretation","notation":"Building point","or_src_id":978,"dmg_src_id":5,"cd_value":"Not Applicable"},"geometry":{"type":"Point","coordinates":[-68.73731375,10.33905802]}},{"type":"Feature","properties":{"obj_type":"11-Residential Buildings","name":"Unknown","info":"997-Not Applicable","simplified":"Residential","damage_gra":"Possibly damaged","det_method":"Photo-interpretation","notation":"Building point","or_src_id":978,"dmg_src_id":5,"cd_value":"Not Applicable"},"geometry":{"type":"Point","coordinates":[-68.73708094,10.33920991]}},{"type":"Feature","properties":{"obj_type":"11-Residential Buildings","name":"Unknown","info":"997-Not Applicable","simplified":"Residential","damage_gra":"Possibly damaged","det_method":"Photo-interpretation","notation":"Building point","or_src_id":978,"dmg_src_id":5,"cd_value":"Not Applicable"},"geometry":{"type":"Point","coordinates":[-68.73724914,10.33957962]}},{"type":"Feature","properties":{"obj_type":"11-Residential Buildings","name":"Unknown","info":"997-Not Applicable","simplified":"Residential","damage_gra":"Possibly damaged","det_method":"Photo-interpretation","notation":"Building point","or_src_id":978,"dmg_src_id":5,"cd_value":"Not Applicable"},"geometry":{"type":"Point","coordinates":[-68.74068713,10.3400039]}},{"type":"Feature","properties":{"obj_type":"11-Residential Buildings","name":"Unknown","info":"997-Not Applicable","simplified":"Residential","damage_gra":"Possibly damaged","det_method":"Photo-interpretation","notation":"Building point","or_src_id":978,"dmg_src_id":5,"cd_value":"Not Applicable"},"geometry":{"type":"Point","coordinates":[-68.74034292,10.34031998]}},{"type":"Feature","properties":{"obj_type":"11-Residential Buildings","name":"Unknown","info":"997-Not Applicable","simplified":"Residential","damage_gra":"Possibly damaged","det_method":"Photo-interpretation","notation":"Building point","or_src_id":978,"dmg_src_id":5,"cd_value":"Not Applicable"},"geometry":{"type":"Point","coordinates":[-68.73393814,10.33954808]}},{"type":"Feature","properties":{"obj_type":"11-Residential Buildings","name":"Unknown","info":"997-Not Applicable","simplified":"Residential","damage_gra":"Damaged","det_method":"Photo-interpretation","notation":"Building point","or_src_id":978,"dmg_src_id":5,"cd_value":"Not Applicable"},"geometry":{"type":"Point","coordinates":[-68.73649367,10.33969934]}},{"type":"Feature","properties":{"obj_type":"11-Residential Buildings","name":"Unknown","info":"997-Not Applicable","simplified":"Residential","damage_gra":"Possibly damaged","det_method":"Photo-interpretation","notation":"Building point","or_src_id":978,"dmg_src_id":5,"cd_value":"Not Applicable"},"geometry":{"type":"Point","coordinates":[-68.73406495,10.33970275]}},{"type":"Feature","properties":{"obj_type":"11-Residential Buildings","name":"Unknown","info":"997-Not Applicable","simplified":"Residential","damage_gra":"Possibly damaged","det_method":"Photo-interpretation","notation":"Building point","or_src_id":978,"dmg_src_id":5,"cd_value":"Not Applicable"},"geometry":{"type":"Point","coordinates":[-68.73674772,10.33992748]}},{"type":"Feature","properties":{"obj_type":"11-Residential Buildings","name":"Unknown","info":"997-Not Applicable","simplified":"Residential","damage_gra":"Possibly damaged","det_method":"Photo-interpretation","notation":"Building point","or_src_id":978,"dmg_src_id":5,"cd_value":"Not Applicable"},"geometry":{"type":"Point","coordinates":[-68.73216213,10.34211682]}},{"type":"Feature","properties":{"obj_type":"11-Residential Buildings","name":"Unknown","info":"997-Not Applicable","simplified":"Residential","damage_gra":"Possibly damaged","det_method":"Photo-interpretation","notation":"Building point","or_src_id":978,"dmg_src_id":5,"cd_value":"Not Applicable"},"geometry":{"type":"Point","coordinates":[-68.73201513,10.3422338]}},{"type":"Feature","properties":{"obj_type":"11-Residential Buildings","name":"Unknown","info":"997-Not Applicable","simplified":"Residential","damage_gra":"Possibly damaged","det_method":"Photo-interpretation","notation":"Building point","or_src_id":978,"dmg_src_id":5,"cd_value":"Not Applicable"},"geometry":{"type":"Point","coordinates":[-68.7245721,10.3422895]}},{"type":"Feature","properties":{"obj_type":"11-Residential Buildings","name":"Unknown","info":"997-Not Applicable","simplified":"Residential","damage_gra":"Damaged","det_method":"Photo-interpretation","notation":"Building point","or_src_id":978,"dmg_src_id":5,"cd_value":"Not Applicable"},"geometry":{"type":"Point","coordinates":[-68.72318071,10.34259453]}},{"type":"Feature","properties":{"obj_type":"11-Residential Buildings","name":"Unknown","info":"997-Not Applicable","simplified":"Residential","damage_gra":"Possibly damaged","det_method":"Photo-interpretation","notation":"Building point","or_src_id":978,"dmg_src_id":5,"cd_value":"Not Applicable"},"geometry":{"type":"Point","coordinates":[-68.7230937,10.34264575]}},{"type":"Feature","properties":{"obj_type":"11-Residential Buildings","name":"Unknown","info":"997-Not Applicable","simplified":"Residential","damage_gra":"Possibly damaged","det_method":"Photo-interpretation","notation":"Building point","or_src_id":978,"dmg_src_id":5,"cd_value":"Not Applicable"},"geometry":{"type":"Point","coordinates":[-68.72262011,10.34267946]}},{"type":"Feature","properties":{"obj_type":"11-Residential Buildings","name":"Unknown","info":"997-Not Applicable","simplified":"Residential","damage_gra":"Possibly damaged","det_method":"Photo-interpretation","notation":"Building point","or_src_id":978,"dmg_src_id":5,"cd_value":"Not Applicable"},"geometry":{"type":"Point","coordinates":[-68.72274705,10.34276985]}},{"type":"Feature","properties":{"obj_type":"11-Residential Buildings","name":"Unknown","info":"997-Not Applicable","simplified":"Residential","damage_gra":"Possibly damaged","det_method":"Photo-interpretation","notation":"Building point","or_src_id":978,"dmg_src_id":5,"cd_value":"Not Applicable"},"geometry":{"type":"Point","coordinates":[-68.72316385,10.34314515]}},{"type":"Feature","properties":{"obj_type":"11-Residential Buildings","name":"Unknown","info":"997-Not Applicable","simplified":"Residential","damage_gra":"Possibly damaged","det_method":"Photo-interpretation","notation":"Building point","or_src_id":978,"dmg_src_id":5,"cd_value":"Not Applicable"},"geometry":{"type":"Point","coordinates":[-68.72342295,10.34317845]}},{"type":"Feature","properties":{"obj_type":"11-Residential Buildings","name":"Unknown","info":"997-Not Applicable","simplified":"Residential","damage_gra":"Possibly damaged","det_method":"Photo-interpretation","notation":"Building point","or_src_id":978,"dmg_src_id":5,"cd_value":"Not Applicable"},"geometry":{"type":"Point","coordinates":[-68.72324195,10.34320172]}},{"type":"Feature","properties":{"obj_type":"11-Residential Buildings","name":"Unknown","info":"997-Not Applicable","simplified":"Residential","damage_gra":"Damaged","det_method":"Photo-interpretation","notation":"Building point","or_src_id":978,"dmg_src_id":5,"cd_value":"Not Applicable"},"geometry":{"type":"Point","coordinates":[-68.72352185,10.3432325]}}]}