{"type":"FeatureCollection","name":"EMSR884_AOI05_GRA_PRODUCT_builtUpP_v1","crs":{"type":"name","properties":{"name":"urn:ogc:def:crs:OGC:1.3:CRS84"}},"features":[{"type":"Feature","properties":{"obj_type":"11-Residential Buildings","name":"Unknown","info":"997-Not Applicable","simplified":"Residential","damage_gra":"Destroyed","det_method":"Photo-interpretation","notation":"Building point","or_src_id":978,"dmg_src_id":2,"cd_value":"Not Applicable"},"geometry":{"type":"Point","coordinates":[-67.48101676,10.21239458]}},{"type":"Feature","properties":{"obj_type":"11-Residential Buildings","name":"Unknown","info":"997-Not Applicable","simplified":"Residential","damage_gra":"Destroyed","det_method":"Photo-interpretation","notation":"Building point","or_src_id":978,"dmg_src_id":2,"cd_value":"Not Applicable"},"geometry":{"type":"Point","coordinates":[-67.48110059,10.21245015]}},{"type":"Feature","properties":{"obj_type":"11-Residential Buildings","name":"Unknown","info":"997-Not Applicable","simplified":"Residential","damage_gra":"Destroyed","det_method":"Photo-interpretation","notation":"Building point","or_src_id":978,"dmg_src_id":2,"cd_value":"Not Applicable"},"geometry":{"type":"Point","coordinates":[-67.48089413,10.2125796]}}]}